{"type":"FeatureCollection","features":[{"type":"Feature","properties":{"layer":"depare","drval1":0,"drval2":1.8288,"sys":"ft","rank":1},"geometry":{"type":"Polygon","coordinates":[[[-52.644853591918945,70.73487067444036],[-52.639617919921875,70.73235012740388],[-52.636871337890625,70.73220851422603],[-52.63120651245117,70.73033912643477],[-52.62845993041992,70.72897946208789],[-52.628631591796875,70.72897946208789],[-52.631378173828125,70.73033912643477],[-52.639617919921875,70.7322934822529],[-52.646484375,70.73519629788422],[-52.646484375,70.73539241822316],[-52.644853591918945,70.73487067444036]]]}},{"type":"Feature","properties":{"layer":"depare","drval1":365.76,"drval2":548.64,"sys":"ft","rank":1},"geometry":{"type":"Polygon","coordinates":[[[-52.559967041015625,70.74023640046323],[-52.565460205078125,70.74755355542075],[-52.587432861328125,70.75786662422188],[-52.58775244819886,70.75796562654924],[-52.55859375,70.75796562654924],[-52.55859375,70.73968432088174],[-52.559967041015625,70.74023640046323]]]}},{"type":"Feature","properties":{"layer":"depare","drval1":2,"drval2":5,"sys":"m","rank":1},"geometry":{"type":"Polygon","coordinates":[[[-52.64455318450928,70.73487067444036],[-52.639617919921875,70.73246341722525],[-52.636871337890625,70.73230764355566],[-52.630906105041504,70.73033912643477],[-52.62820243835449,70.72897946208789],[-52.62845993041992,70.72897946208789],[-52.63120651245117,70.73033912643477],[-52.636871337890625,70.73220851422603],[-52.639617919921875,70.73235012740388],[-52.64481067657471,70.73487067444036],[-52.646484375,70.73539815617521],[-52.646484375,70.73548852891999],[-52.64455318450928,70.73487067444036]]]}},{"type":"Feature","properties":{"layer":"depare","drval1":18.288,"drval2":36.576,"sys":"ft","rank":1},"geometry":{"type":"Polygon","coordinates":[[[-52.6459264755249,70.73758911113276],[-52.645111083984375,70.73649894907514],[-52.628631591796875,70.73103308620432],[-52.62073516845703,70.72897946208789],[-52.6270866394043,70.72897946208789],[-52.62970447540283,70.73033912643477],[-52.636871337890625,70.73270415596792],[-52.639617919921875,70.73291657010252],[-52.646098136901855,70.73577686101048],[-52.646484375,70.73663529527893],[-52.646484375,70.73775926606955],[-52.6459264755249,70.73758911113276]]]}},{"type":"Feature","properties":{"layer":"depare","drval1":300,"drval2":500,"sys":"m","rank":1},"geometry":{"type":"Polygon","coordinates":[[[-52.56730556488037,70.73487067444036],[-52.57339954376221,70.73849517468818],[-52.5800085067749,70.7439306950432],[-52.60258197784424,70.75298661645898],[-52.617645263671875,70.75765447472727],[-52.61986858682164,70.75796562654924],[-52.55859375,70.75796562654924],[-52.55859375,70.73206690004687],[-52.56730556488037,70.73487067444036]]]}},{"type":"Feature","properties":{"layer":"depare","drval1":1.8288,"drval2":3.6576,"sys":"ft","rank":1},"geometry":{"type":"Polygon","coordinates":[[[-52.64468193054199,70.73487067444036],[-52.639617919921875,70.73240677239467],[-52.636871337890625,70.73226515961733],[-52.63103485107422,70.73033912643477],[-52.62833118438721,70.72897946208789],[-52.62845993041992,70.72897946208789],[-52.63120651245117,70.73033912643477],[-52.636871337890625,70.73220851422603],[-52.639617919921875,70.73235012740388],[-52.644853591918945,70.73487067444036],[-52.646484375,70.73539241822316],[-52.646484375,70.73544733862134],[-52.64468193054199,70.73487067444036]]]}},{"type":"Feature","properties":{"layer":"depare","drval1":36.576,"drval2":54.864,"sys":"ft","rank":1},"geometry":{"type":"Polygon","coordinates":[[[-52.641334533691406,70.73668300657407],[-52.628631591796875,70.73250590074305],[-52.615113258361816,70.72897946208789],[-52.62073516845703,70.72897946208789],[-52.628631591796875,70.73103308620432],[-52.645111083984375,70.73649894907514],[-52.6459264755249,70.73758911113276],[-52.646484375,70.73775926606955],[-52.646484375,70.7381483092047],[-52.641334533691406,70.73668300657407]]]}},{"type":"Feature","properties":{"layer":"depare","drval1":0,"drval2":2,"sys":"m","rank":1},"geometry":{"type":"Polygon","coordinates":[[[-52.64481067657471,70.73487067444036],[-52.639617919921875,70.73235012740388],[-52.636871337890625,70.73220851422603],[-52.63120651245117,70.73033912643477],[-52.62845993041992,70.72897946208789],[-52.628631591796875,70.72897946208789],[-52.631378173828125,70.73033912643477],[-52.639617919921875,70.7322934822529],[-52.646484375,70.73519629788422],[-52.646484375,70.73539815617521],[-52.64481067657471,70.73487067444036]]]}},{"type":"Feature","properties":{"layer":"depare","drval1":5,"drval2":10,"sys":"m","rank":1},"geometry":{"type":"Polygon","coordinates":[[[-52.644081115722656,70.73487067444036],[-52.639617919921875,70.73263335075575],[-52.636871337890625,70.73244925603262],[-52.63047695159912,70.73033912643477],[-52.62777328491211,70.72897946208789],[-52.62820243835449,70.72897946208789],[-52.630906105041504,70.73033912643477],[-52.636871337890625,70.73230764355566],[-52.639617919921875,70.73246341722525],[-52.64455318450928,70.73487067444036],[-52.646484375,70.73548852891999],[-52.646484375,70.735639560015],[-52.644081115722656,70.73487067444036]]]}},{"type":"Feature","properties":{"layer":"depare","drval1":200,"drval2":300,"sys":"m","rank":1},"geometry":{"type":"Polygon","coordinates":[[[-52.617645263671875,70.75765447472727],[-52.60258197784424,70.75298661645898],[-52.5800085067749,70.7439306950432],[-52.57339954376221,70.73849517468818],[-52.56730556488037,70.73487067444036],[-52.55859375,70.73206690004687],[-52.55859375,70.72897946208789],[-52.577476501464844,70.72897946208789],[-52.589149475097656,70.73215186867452],[-52.605628967285156,70.73849517468818],[-52.620391845703125,70.7430248774732],[-52.631378173828125,70.7457422072092],[-52.646484375,70.74801225106754],[-52.646484375,70.75796562654924],[-52.61986858682164,70.75796562654924],[-52.617645263671875,70.75765447472727]]]}},{"type":"Feature","properties":{"layer":"depare","drval1":3.6576,"drval2":5.4864,"sys":"ft","rank":1},"geometry":{"type":"Polygon","coordinates":[[[-52.64451026916504,70.73487067444036],[-52.639617919921875,70.73247757840785],[-52.636871337890625,70.73232180484841],[-52.630863189697266,70.73033912643477],[-52.628159523010254,70.72897946208789],[-52.62833118438721,70.72897946208789],[-52.63103485107422,70.73033912643477],[-52.636871337890625,70.73226515961733],[-52.639617919921875,70.73240677239467],[-52.64468193054199,70.73487067444036],[-52.646484375,70.73544733862134],[-52.646484375,70.73550225901953],[-52.64451026916504,70.73487067444036]]]}},{"type":"Feature","properties":{"layer":"depare","drval1":10,"drval2":20,"sys":"m","rank":1},"geometry":{"type":"Polygon","coordinates":[[[-52.64596939086914,70.73577686101048],[-52.639617919921875,70.73297321349126],[-52.636871337890625,70.73276079995742],[-52.62953281402588,70.73033912643477],[-52.626914978027344,70.72897946208789],[-52.62777328491211,70.72897946208789],[-52.63047695159912,70.73033912643477],[-52.636871337890625,70.73244925603262],[-52.639617919921875,70.73263335075575],[-52.644081115722656,70.73487067444036],[-52.646484375,70.735639560015],[-52.646484375,70.73692144003508],[-52.64596939086914,70.73577686101048]]]}},{"type":"Feature","properties":{"layer":"depare","drval1":30,"drval2":50,"sys":"m","rank":1},"geometry":{"type":"Polygon","coordinates":[[[-52.623138427734375,70.73060821572992],[-52.61674404144287,70.72897946208789],[-52.623353004455566,70.72897946208789],[-52.628631591796875,70.73033912643477],[-52.645111083984375,70.73589013144844],[-52.64626979827881,70.73758911113276],[-52.646484375,70.73765517878088],[-52.646484375,70.73786266089799],[-52.623138427734375,70.73060821572992]]]}},{"type":"Feature","properties":{"layer":"depare","drval1":5.4864,"drval2":9.144,"sys":"ft","rank":1},"geometry":{"type":"Polygon","coordinates":[[[-52.64416694641113,70.73487067444036],[-52.639617919921875,70.73260502860079],[-52.636871337890625,70.73242093361733],[-52.63051986694336,70.73033912643477],[-52.627859115600586,70.72897946208789],[-52.628159523010254,70.72897946208789],[-52.630863189697266,70.73033912643477],[-52.636871337890625,70.73232180484841],[-52.639617919921875,70.73247757840785],[-52.64451026916504,70.73487067444036],[-52.646484375,70.73550225901953],[-52.646484375,70.73561209981591],[-52.64416694641113,70.73487067444036]]]}},{"type":"Feature","properties":{"layer":"depare","drval1":9.144,"drval2":18.288,"sys":"ft","rank":1},"geometry":{"type":"Polygon","coordinates":[[[-52.646098136901855,70.73577686101048],[-52.639617919921875,70.73291657010252],[-52.636871337890625,70.73270415596792],[-52.62970447540283,70.73033912643477],[-52.6270866394043,70.72897946208789],[-52.627859115600586,70.72897946208789],[-52.63051986694336,70.73033912643477],[-52.636871337890625,70.73242093361733],[-52.639617919921875,70.73260502860079],[-52.64416694641113,70.73487067444036],[-52.646484375,70.73561209981591],[-52.646484375,70.73663529527893],[-52.646098136901855,70.73577686101048]]]}},{"type":"Feature","properties":{"layer":"depare","drval1":50,"drval2":100,"sys":"m","rank":1},"geometry":{"type":"Polygon","coordinates":[[[-52.63798713684082,70.73849517468818],[-52.60404109954834,70.72897946208789],[-52.61674404144287,70.72897946208789],[-52.623138427734375,70.73060821572992],[-52.646484375,70.73786266089799],[-52.646484375,70.74042065482651],[-52.63798713684082,70.73849517468818]]]}},{"type":"Feature","properties":{"layer":"depare","drval1":54.864,"drval2":91.44,"sys":"ft","rank":1},"geometry":{"type":"Polygon","coordinates":[[[-52.639832496643066,70.73849517468818],[-52.625885009765625,70.73431844689068],[-52.612152099609375,70.73072151540428],[-52.60597229003906,70.72897946208789],[-52.615113258361816,70.72897946208789],[-52.628631591796875,70.73250590074305],[-52.641334533691406,70.73668300657407],[-52.646484375,70.7381483092047],[-52.646484375,70.73973294979393],[-52.639832496643066,70.73849517468818]]]}},{"type":"Feature","properties":{"layer":"depare","drval1":91.44,"drval2":182.88,"sys":"ft","rank":1},"geometry":{"type":"Polygon","coordinates":[[[-52.639617919921875,70.74528934453895],[-52.625885009765625,70.742288870513],[-52.606658935546875,70.73658389890028],[-52.59146690368652,70.731245518062],[-52.58305561516286,70.72897946208789],[-52.60597229003906,70.72897946208789],[-52.612152099609375,70.73072151540428],[-52.625885009765625,70.73431844689068],[-52.639832496643066,70.73849517468818],[-52.646484375,70.73973294979393],[-52.646484375,70.7460082560214],[-52.639617919921875,70.74528934453895]]]}},{"type":"Feature","properties":{"layer":"depare","drval1":100,"drval2":200,"sys":"m","rank":1},"geometry":{"type":"Polygon","coordinates":[[[-52.631378173828125,70.7457422072092],[-52.620391845703125,70.7430248774732],[-52.605628967285156,70.73849517468818],[-52.589149475097656,70.73215186867452],[-52.577476501464844,70.72897946208789],[-52.60404109954834,70.72897946208789],[-52.63798713684082,70.73849517468818],[-52.646484375,70.74042065482651],[-52.646484375,70.74801225106754],[-52.631378173828125,70.7457422072092]]]}},{"type":"Feature","properties":{"layer":"depare","drval1":20,"drval2":30,"sys":"m","rank":1},"geometry":{"type":"Polygon","coordinates":[[[-52.64626979827881,70.73758911113276],[-52.645111083984375,70.73589013144844],[-52.628631591796875,70.73033912643477],[-52.623353004455566,70.72897946208789],[-52.626914978027344,70.72897946208789],[-52.62953281402588,70.73033912643477],[-52.636871337890625,70.73276079995742],[-52.639617919921875,70.73297321349126],[-52.64596939086914,70.73577686101048],[-52.646484375,70.73692144003508],[-52.646484375,70.73765517878088],[-52.64626979827881,70.73758911113276]]]}},{"type":"Feature","properties":{"layer":"depare","drval1":182.88,"drval2":365.76,"sys":"ft","rank":1},"geometry":{"type":"Polygon","coordinates":[[[-52.587432861328125,70.75786662422188],[-52.565460205078125,70.74755355542075],[-52.559967041015625,70.74023640046323],[-52.55859375,70.73968432088174],[-52.55859375,70.72897946208789],[-52.58305561516286,70.72897946208789],[-52.59146690368652,70.731245518062],[-52.606658935546875,70.73658389890028],[-52.625885009765625,70.742288870513],[-52.639617919921875,70.74528934453895],[-52.646484375,70.7460082560214],[-52.646484375,70.75796562654924],[-52.58775244819886,70.75796562654924],[-52.587432861328125,70.75786662422188]]]}},{"type":"Feature","properties":{"layer":"contours","depth_m":-365.76,"depth_abs_m":366,"sys":"ft","depth_ft":1200,"depth_fm":200},"geometry":{"type":"LineString","coordinates":[[-52.58922636417887,70.75796562654924],[-52.587690353393555,70.75741403591292],[-52.58279800415039,70.7555045662361],[-52.57906436920166,70.75393442126898],[-52.57503032684326,70.75206706141358],[-52.571468353271484,70.75024197313914],[-52.56837844848633,70.74848746778189],[-52.566189765930176,70.74707243204249],[-52.56434440612793,70.74569975176918],[-52.56284236907959,70.74438358845615],[-52.56164073944092,70.74309564594705],[-52.56091117858887,70.742359641589],[-52.55966663360596,70.74141128838264],[-52.55859375,70.74070353283332]]}},{"type":"Feature","properties":{"layer":"contours","depth_m":-182.88,"depth_abs_m":183,"sys":"ft","depth_ft":600,"depth_fm":100},"geometry":{"type":"LineString","coordinates":[[-52.646484375,70.74503755018748],[-52.64399528503418,70.74461003131968],[-52.639832496643066,70.74381747008873],[-52.63554096221924,70.74296826251398],[-52.62893199920654,70.74156699124546],[-52.624382972717285,70.74054782325442],[-52.61979103088379,70.73945782229022],[-52.61507034301758,70.73828281972118],[-52.61026382446289,70.73706527443515],[-52.60283946990967,70.73508306559698],[-52.59777545928955,70.73368124233373],[-52.59262561798096,70.73220851422603],[-52.58176803588867,70.72897946208789]]}},{"type":"Feature","properties":{"layer":"contours","depth_m":-5.4864,"depth_abs_m":5,"sys":"ft","depth_ft":18,"depth_fm":3},"geometry":{"type":"LineString","coordinates":[[-52.646484375,70.73624850474454],[-52.64116287231445,70.73305817827402],[-52.634124755859375,70.73227932094011],[-52.62601375579834,70.72897946208789]]}},{"type":"Feature","properties":{"layer":"contours","depth_m":-300,"depth_abs_m":300,"sys":"m","depth_ft":984,"depth_fm":164},"geometry":{"type":"LineString","coordinates":[[-52.621917454973904,70.75796562654924],[-52.61884689331055,70.75738574880356],[-52.615413665771484,70.75662198172752],[-52.61232376098633,70.75582989617521],[-52.608933448791504,70.75481145437314],[-52.60472774505615,70.75343930495532],[-52.60026454925537,70.75186899787154],[-52.59550094604492,70.75008633775316],[-52.59052276611328,70.74810541799319],[-52.58700370788574,70.74661959947267],[-52.58438587188721,70.74544501723767],[-52.58129596710205,70.743973154236],[-52.578978538513184,70.74279841667554],[-52.57683277130127,70.74160945545242],[-52.57481575012207,70.7404345791636],[-52.571210861206055,70.7380987769279],[-52.56979465484619,70.73723516891977],[-52.56829261779785,70.73638568208104],[-52.5666618347168,70.73556447721234],[-52.564988136291504,70.73474323866512],[-52.563185691833496,70.73395028673077],[-52.5606107711792,70.73291657010252],[-52.55859375,70.73215186867452]]}},{"type":"Feature","properties":{"layer":"contours","depth_m":-5,"depth_abs_m":5,"sys":"m","depth_ft":16,"depth_fm":3},"geometry":{"type":"LineString","coordinates":[[-52.646484375,70.73622616578727],[-52.64120578765869,70.73305817827402],[-52.634124755859375,70.73226515961733],[-52.62605667114258,70.72897946208789]]}},{"type":"Feature","properties":{"layer":"contours","depth_m":-1.8288,"depth_abs_m":2,"sys":"ft","depth_ft":6,"depth_fm":1},"geometry":{"type":"LineString","coordinates":[[-52.646484375,70.73612876451219],[-52.64146327972412,70.73305817827402],[-52.634124755859375,70.73219435285317],[-52.62631416320801,70.72897946208789]]}},{"type":"Feature","properties":{"layer":"contours","depth_m":-18.288,"depth_abs_m":18,"sys":"ft","depth_ft":60,"depth_fm":10},"geometry":{"type":"LineString","coordinates":[[-52.646484375,70.73666820621709],[-52.64000415802002,70.73305817827402],[-52.634124755859375,70.73257670640578],[-52.6250696182251,70.72897946208789]]}},{"type":"Feature","properties":{"layer":"contours","depth_m":-9.144,"depth_abs_m":9,"sys":"ft","depth_ft":30,"depth_fm":5},"geometry":{"type":"LineString","coordinates":[[-52.646484375,70.7363724283507],[-52.64081954956055,70.73305817827402],[-52.634124755859375,70.73236428866659],[-52.62575626373291,70.72897946208789]]}},{"type":"Feature","properties":{"layer":"contours","depth_m":-20,"depth_abs_m":20,"sys":"m","depth_ft":66,"depth_fm":11},"geometry":{"type":"LineString","coordinates":[[-52.646484375,70.73672158285055],[-52.639832496643066,70.73305817827402],[-52.62558460235596,70.72897946208789]]}},{"type":"Feature","properties":{"layer":"contours","depth_m":-30,"depth_abs_m":30,"sys":"m","depth_ft":98,"depth_fm":16},"geometry":{"type":"LineString","coordinates":[[-52.646484375,70.73792308192021],[-52.623610496520996,70.72897946208789]]}},{"type":"Feature","properties":{"layer":"contours","depth_m":-3.6576,"depth_abs_m":4,"sys":"ft","depth_ft":12,"depth_fm":2},"geometry":{"type":"LineString","coordinates":[[-52.646484375,70.73618561207726],[-52.641334533691406,70.73305817827402],[-52.634124755859375,70.7322368369417],[-52.62618541717529,70.72897946208789]]}},{"type":"Feature","properties":{"layer":"contours","depth_m":-2,"depth_abs_m":2,"sys":"m","depth_ft":7,"depth_fm":1},"geometry":{"type":"LineString","coordinates":[[-52.646484375,70.73612876451219],[-52.64146327972412,70.73305817827402],[-52.634124755859375,70.73219435285317],[-52.62627124786377,70.72897946208789]]}},{"type":"Feature","properties":{"layer":"contours","depth_m":-10,"depth_abs_m":10,"sys":"m","depth_ft":33,"depth_fm":5},"geometry":{"type":"LineString","coordinates":[[-52.646484375,70.73640577835621],[-52.64073371887207,70.73305817827402],[-52.634124755859375,70.73239261116198],[-52.62571334838867,70.72897946208789]]}},{"type":"Feature","properties":{"layer":"contours","depth_m":-54.864,"depth_abs_m":55,"sys":"ft","depth_ft":180,"depth_fm":30},"geometry":{"type":"LineString","coordinates":[[-52.646484375,70.73767701261522],[-52.64051914215088,70.736300731415],[-52.633609771728516,70.73460164240815],[-52.62627124786377,70.7326899949455],[-52.618632316589355,70.73059405322554],[-52.6129674911499,70.72897946208789]]}},{"type":"Feature","properties":{"layer":"contours","depth_m":-100,"depth_abs_m":100,"sys":"m","depth_ft":328,"depth_fm":55},"geometry":{"type":"LineString","coordinates":[[-52.646484375,70.73878066473556],[-52.64279365539551,70.73807046250187],[-52.63571262359619,70.73658389890028],[-52.62858867645264,70.73499810940466],[-52.62146472930908,70.73328474926578],[-52.61429786682129,70.73147210956019],[-52.6094913482666,70.73019749903798],[-52.60507106781006,70.72897946208789]]}},{"type":"Feature","properties":{"layer":"contours","depth_m":-36.576,"depth_abs_m":37,"sys":"ft","depth_ft":120,"depth_fm":20},"geometry":{"type":"LineString","coordinates":[[-52.646484375,70.73768031157499],[-52.646355628967285,70.73764574130622],[-52.644639015197754,70.73713606397892],[-52.64296531677246,70.73658389890028],[-52.63657093048096,70.73421932751343],[-52.6340389251709,70.73334139161322],[-52.631378173828125,70.73247757840785],[-52.62867450714111,70.73162788972823],[-52.62584209442139,70.73079232737531],[-52.622880935668945,70.72997089312024],[-52.61919021606445,70.72897946208789]]}},{"type":"Feature","properties":{"layer":"contours","depth_m":-50,"depth_abs_m":50,"sys":"m","depth_ft":164,"depth_fm":27},"geometry":{"type":"LineString","coordinates":[[-52.646484375,70.73812848111501],[-52.64549732208252,70.7378722603984],[-52.64296531677246,70.73713606397892],[-52.637128829956055,70.7351680214289],[-52.630863189697266,70.73317146409029],[-52.62459754943848,70.73127384213946],[-52.61670112609863,70.72897946208789]]}},{"type":"Feature","properties":{"layer":"contours","depth_m":-91.44,"depth_abs_m":91,"sys":"ft","depth_ft":300,"depth_fm":50},"geometry":{"type":"LineString","coordinates":[[-52.646484375,70.7384738075694],[-52.64249324798584,70.73765989882457],[-52.63777256011963,70.73664053191679],[-52.630648612976074,70.73502642817549],[-52.623395919799805,70.73328474926578],[-52.6161003112793,70.73142962384954],[-52.61120796203613,70.73012668496408],[-52.60704517364502,70.72897946208789]]}},{"type":"Feature","properties":{"layer":"contours","depth_m":-200,"depth_abs_m":200,"sys":"m","depth_ft":656,"depth_fm":109},"geometry":{"type":"LineString","coordinates":[[-52.646484375,70.74782162638319],[-52.64240741729736,70.74729884448493],[-52.63845920562744,70.74671865747288],[-52.63644218444824,70.74639317934523],[-52.63455390930176,70.74605354435084],[-52.63124942779541,70.74531764875604],[-52.628159523010254,70.74455342084399],[-52.62579917907715,70.7439306950432],[-52.61876106262207,70.74197747480603],[-52.61022090911865,70.73950029097132],[-52.600135803222656,70.73645647402745],[-52.58850574493408,70.73288824834806],[-52.57601737976074,70.72897946208789]]}},{"type":"Feature","properties":{"layer":"depare","drval1":0,"drval2":1.8288,"sys":"ft","rank":1},"geometry":{"type":"Polygon","coordinates":[[[-52.644853591918945,70.73487067444036],[-52.639617919921875,70.73235012740388],[-52.636871337890625,70.73220851422603],[-52.63120651245117,70.73033912643477],[-52.62845993041992,70.72897946208789],[-52.628631591796875,70.72897946208789],[-52.631378173828125,70.73033912643477],[-52.639617919921875,70.7322934822529],[-52.646484375,70.73519474044019],[-52.646484375,70.73539248993086],[-52.644853591918945,70.73487067444036]]]}},{"type":"Feature","properties":{"layer":"depare","drval1":2,"drval2":5,"sys":"m","rank":1},"geometry":{"type":"Polygon","coordinates":[[[-52.64455318450928,70.73487067444036],[-52.639617919921875,70.73246341722525],[-52.636871337890625,70.73230764355566],[-52.630906105041504,70.73033912643477],[-52.62820243835449,70.72897946208789],[-52.62845993041992,70.72897946208789],[-52.63120651245117,70.73033912643477],[-52.636871337890625,70.73220851422603],[-52.639617919921875,70.73235012740388],[-52.64481067657471,70.73487067444036],[-52.646484375,70.73539714484157],[-52.646484375,70.73548823209289],[-52.64455318450928,70.73487067444036]]]}},{"type":"Feature","properties":{"layer":"depare","drval1":18.288,"drval2":36.576,"sys":"ft","rank":1},"geometry":{"type":"Polygon","coordinates":[[[-52.6459264755249,70.73758911113276],[-52.645111083984375,70.73649894907514],[-52.628631591796875,70.73103308620432],[-52.62073516845703,70.72897946208789],[-52.6270866394043,70.72897946208789],[-52.62970447540283,70.73033912643477],[-52.636871337890625,70.73270415596792],[-52.639617919921875,70.73291657010252],[-52.646098136901855,70.73577686101048],[-52.646484375,70.73663529527893],[-52.646484375,70.737760608843],[-52.6459264755249,70.73758911113276]]]}},{"type":"Feature","properties":{"layer":"depare","drval1":1.8288,"drval2":3.6576,"sys":"ft","rank":1},"geometry":{"type":"Polygon","coordinates":[[[-52.64468193054199,70.73487067444036],[-52.639617919921875,70.73240677239467],[-52.636871337890625,70.73226515961733],[-52.63103485107422,70.73033912643477],[-52.62833118438721,70.72897946208789],[-52.62845993041992,70.72897946208789],[-52.63120651245117,70.73033912643477],[-52.636871337890625,70.73220851422603],[-52.639617919921875,70.73235012740388],[-52.644853591918945,70.73487067444036],[-52.646484375,70.73539248993086],[-52.646484375,70.73544617680578],[-52.64468193054199,70.73487067444036]]]}},{"type":"Feature","properties":{"layer":"depare","drval1":36.576,"drval2":54.864,"sys":"ft","rank":1},"geometry":{"type":"Polygon","coordinates":[[[-52.641334533691406,70.73668300657407],[-52.628631591796875,70.73250590074305],[-52.615113258361816,70.72897946208789],[-52.62073516845703,70.72897946208789],[-52.628631591796875,70.73103308620432],[-52.645111083984375,70.73649894907514],[-52.6459264755249,70.73758911113276],[-52.646484375,70.737760608843],[-52.646484375,70.73814831814087],[-52.641334533691406,70.73668300657407]]]}},{"type":"Feature","properties":{"layer":"depare","drval1":0,"drval2":2,"sys":"m","rank":1},"geometry":{"type":"Polygon","coordinates":[[[-52.64481067657471,70.73487067444036],[-52.639617919921875,70.73235012740388],[-52.636871337890625,70.73220851422603],[-52.63120651245117,70.73033912643477],[-52.62845993041992,70.72897946208789],[-52.628631591796875,70.72897946208789],[-52.631378173828125,70.73033912643477],[-52.639617919921875,70.7322934822529],[-52.646484375,70.73519474044019],[-52.646484375,70.73539714484157],[-52.64481067657471,70.73487067444036]]]}},{"type":"Feature","properties":{"layer":"depare","drval1":5,"drval2":10,"sys":"m","rank":1},"geometry":{"type":"Polygon","coordinates":[[[-52.644081115722656,70.73487067444036],[-52.639617919921875,70.73263335075575],[-52.636871337890625,70.73244925603262],[-52.63047695159912,70.73033912643477],[-52.62777328491211,70.72897946208789],[-52.62820243835449,70.72897946208789],[-52.630906105041504,70.73033912643477],[-52.636871337890625,70.73230764355566],[-52.639617919921875,70.73246341722525],[-52.64455318450928,70.73487067444036],[-52.646484375,70.73548823209289],[-52.646484375,70.735639560015],[-52.644081115722656,70.73487067444036]]]}},{"type":"Feature","properties":{"layer":"depare","drval1":200,"drval2":300,"sys":"m","rank":1},"geometry":{"type":"Polygon","coordinates":[[[-52.601680755615234,70.73697678715348],[-52.605628967285156,70.73849517468818],[-52.620391845703125,70.7430248774732],[-52.623363733291626,70.7437608573713],[-52.601680755615234,70.7437608573713],[-52.601680755615234,70.73697678715348]]]}},{"type":"Feature","properties":{"layer":"depare","drval1":3.6576,"drval2":5.4864,"sys":"ft","rank":1},"geometry":{"type":"Polygon","coordinates":[[[-52.64451026916504,70.73487067444036],[-52.639617919921875,70.73247757840785],[-52.636871337890625,70.73232180484841],[-52.630863189697266,70.73033912643477],[-52.628159523010254,70.72897946208789],[-52.62833118438721,70.72897946208789],[-52.63103485107422,70.73033912643477],[-52.636871337890625,70.73226515961733],[-52.639617919921875,70.73240677239467],[-52.64468193054199,70.73487067444036],[-52.646484375,70.73544617680578],[-52.646484375,70.73550225901953],[-52.64451026916504,70.73487067444036]]]}},{"type":"Feature","properties":{"layer":"depare","drval1":10,"drval2":20,"sys":"m","rank":1},"geometry":{"type":"Polygon","coordinates":[[[-52.64596939086914,70.73577686101048],[-52.639617919921875,70.73297321349126],[-52.636871337890625,70.73276079995742],[-52.62953281402588,70.73033912643477],[-52.626914978027344,70.72897946208789],[-52.62777328491211,70.72897946208789],[-52.63047695159912,70.73033912643477],[-52.636871337890625,70.73244925603262],[-52.639617919921875,70.73263335075575],[-52.644081115722656,70.73487067444036],[-52.646484375,70.735639560015],[-52.646484375,70.73692144003508],[-52.64596939086914,70.73577686101048]]]}},{"type":"Feature","properties":{"layer":"depare","drval1":30,"drval2":50,"sys":"m","rank":1},"geometry":{"type":"Polygon","coordinates":[[[-52.623138427734375,70.73060821572992],[-52.61674404144287,70.72897946208789],[-52.623353004455566,70.72897946208789],[-52.628631591796875,70.73033912643477],[-52.645111083984375,70.73589013144844],[-52.64626979827881,70.73758911113276],[-52.646484375,70.73765565112785],[-52.646484375,70.73786046452014],[-52.623138427734375,70.73060821572992]]]}},{"type":"Feature","properties":{"layer":"depare","drval1":5.4864,"drval2":9.144,"sys":"ft","rank":1},"geometry":{"type":"Polygon","coordinates":[[[-52.64416694641113,70.73487067444036],[-52.639617919921875,70.73260502860079],[-52.636871337890625,70.73242093361733],[-52.63051986694336,70.73033912643477],[-52.627859115600586,70.72897946208789],[-52.628159523010254,70.72897946208789],[-52.630863189697266,70.73033912643477],[-52.636871337890625,70.73232180484841],[-52.639617919921875,70.73247757840785],[-52.64451026916504,70.73487067444036],[-52.646484375,70.73550225901953],[-52.646484375,70.73561209981591],[-52.64416694641113,70.73487067444036]]]}},{"type":"Feature","properties":{"layer":"depare","drval1":9.144,"drval2":18.288,"sys":"ft","rank":1},"geometry":{"type":"Polygon","coordinates":[[[-52.646098136901855,70.73577686101048],[-52.639617919921875,70.73291657010252],[-52.636871337890625,70.73270415596792],[-52.62970447540283,70.73033912643477],[-52.6270866394043,70.72897946208789],[-52.627859115600586,70.72897946208789],[-52.63051986694336,70.73033912643477],[-52.636871337890625,70.73242093361733],[-52.639617919921875,70.73260502860079],[-52.64416694641113,70.73487067444036],[-52.646484375,70.73561209981591],[-52.646484375,70.73663529527893],[-52.646098136901855,70.73577686101048]]]}},{"type":"Feature","properties":{"layer":"depare","drval1":50,"drval2":100,"sys":"m","rank":1},"geometry":{"type":"Polygon","coordinates":[[[-52.63798713684082,70.73849517468818],[-52.60404109954834,70.72897946208789],[-52.61674404144287,70.72897946208789],[-52.623138427734375,70.73060821572992],[-52.646484375,70.73786046452014],[-52.646484375,70.7404205765897],[-52.63798713684082,70.73849517468818]]]}},{"type":"Feature","properties":{"layer":"depare","drval1":54.864,"drval2":91.44,"sys":"ft","rank":1},"geometry":{"type":"Polygon","coordinates":[[[-52.639832496643066,70.73849517468818],[-52.625885009765625,70.73431844689068],[-52.612152099609375,70.73072151540428],[-52.60597229003906,70.72897946208789],[-52.615113258361816,70.72897946208789],[-52.628631591796875,70.73250590074305],[-52.641334533691406,70.73668300657407],[-52.646484375,70.73814831814087],[-52.646484375,70.73973335659362],[-52.639832496643066,70.73849517468818]]]}},{"type":"Feature","properties":{"layer":"depare","drval1":91.44,"drval2":182.88,"sys":"ft","rank":1},"geometry":{"type":"Polygon","coordinates":[[[-52.632622718811035,70.7437608573713],[-52.625885009765625,70.742288870513],[-52.606658935546875,70.73658389890028],[-52.601680755615234,70.73483527569525],[-52.601680755615234,70.72897946208789],[-52.60597229003906,70.72897946208789],[-52.612152099609375,70.73072151540428],[-52.625885009765625,70.73431844689068],[-52.639832496643066,70.73849517468818],[-52.646484375,70.73973335659362],[-52.646484375,70.7437608573713],[-52.632622718811035,70.7437608573713]]]}},{"type":"Feature","properties":{"layer":"depare","drval1":100,"drval2":200,"sys":"m","rank":1},"geometry":{"type":"Polygon","coordinates":[[[-52.623363733291626,70.7437608573713],[-52.620391845703125,70.7430248774732],[-52.605628967285156,70.73849517468818],[-52.601680755615234,70.73697678715348],[-52.601680755615234,70.72897946208789],[-52.60404109954834,70.72897946208789],[-52.63798713684082,70.73849517468818],[-52.646484375,70.7404205765897],[-52.646484375,70.7437608573713],[-52.623363733291626,70.7437608573713]]]}},{"type":"Feature","properties":{"layer":"depare","drval1":20,"drval2":30,"sys":"m","rank":1},"geometry":{"type":"Polygon","coordinates":[[[-52.64626979827881,70.73758911113276],[-52.645111083984375,70.73589013144844],[-52.628631591796875,70.73033912643477],[-52.623353004455566,70.72897946208789],[-52.626914978027344,70.72897946208789],[-52.62953281402588,70.73033912643477],[-52.636871337890625,70.73276079995742],[-52.639617919921875,70.73297321349126],[-52.64596939086914,70.73577686101048],[-52.646484375,70.73692144003508],[-52.646484375,70.73765565112785],[-52.64626979827881,70.73758911113276]]]}},{"type":"Feature","properties":{"layer":"depare","drval1":182.88,"drval2":365.76,"sys":"ft","rank":1},"geometry":{"type":"Polygon","coordinates":[[[-52.601680755615234,70.73483527569525],[-52.606658935546875,70.73658389890028],[-52.625885009765625,70.742288870513],[-52.632622718811035,70.7437608573713],[-52.601680755615234,70.7437608573713],[-52.601680755615234,70.73483527569525]]]}},{"type":"Feature","properties":{"layer":"contours","depth_m":-182.88,"depth_abs_m":183,"sys":"ft","depth_ft":600,"depth_fm":100},"geometry":{"type":"LineString","coordinates":[[-52.63954281806946,70.7437608573713],[-52.63554096221924,70.74296826251398],[-52.62893199920654,70.74156699124546],[-52.624382972717285,70.74054782325442],[-52.61979103088379,70.73945782229022],[-52.61507034301758,70.73828281972118],[-52.61026382446289,70.73706527443515],[-52.60283946990967,70.73508306559698],[-52.601680755615234,70.73476093812684]]}},{"type":"Feature","properties":{"layer":"contours","depth_m":-5.4864,"depth_abs_m":5,"sys":"ft","depth_ft":18,"depth_fm":3},"geometry":{"type":"LineString","coordinates":[[-52.646484375,70.73624966083091],[-52.64116287231445,70.73305817827402],[-52.634124755859375,70.73227932094011],[-52.62601375579834,70.72897946208789]]}},{"type":"Feature","properties":{"layer":"contours","depth_m":-5,"depth_abs_m":5,"sys":"m","depth_ft":16,"depth_fm":3},"geometry":{"type":"LineString","coordinates":[[-52.646484375,70.73622779415491],[-52.64120578765869,70.73305817827402],[-52.634124755859375,70.73226515961733],[-52.62605667114258,70.72897946208789]]}},{"type":"Feature","properties":{"layer":"contours","depth_m":-1.8288,"depth_abs_m":2,"sys":"ft","depth_ft":6,"depth_fm":1},"geometry":{"type":"LineString","coordinates":[[-52.646484375,70.73612662908364],[-52.64146327972412,70.73305817827402],[-52.634124755859375,70.73219435285317],[-52.62631416320801,70.72897946208789]]}},{"type":"Feature","properties":{"layer":"contours","depth_m":-18.288,"depth_abs_m":18,"sys":"ft","depth_ft":60,"depth_fm":10},"geometry":{"type":"LineString","coordinates":[[-52.646484375,70.73666849477313],[-52.64000415802002,70.73305817827402],[-52.634124755859375,70.73257670640578],[-52.6250696182251,70.72897946208789]]}},{"type":"Feature","properties":{"layer":"contours","depth_m":-9.144,"depth_abs_m":9,"sys":"ft","depth_ft":30,"depth_fm":5},"geometry":{"type":"LineString","coordinates":[[-52.646484375,70.73637511479433],[-52.64081954956055,70.73305817827402],[-52.634124755859375,70.73236428866659],[-52.62575626373291,70.72897946208789]]}},{"type":"Feature","properties":{"layer":"contours","depth_m":-20,"depth_abs_m":20,"sys":"m","depth_ft":66,"depth_fm":11},"geometry":{"type":"LineString","coordinates":[[-52.646484375,70.73672331413775],[-52.639832496643066,70.73305817827402],[-52.62558460235596,70.72897946208789]]}},{"type":"Feature","properties":{"layer":"contours","depth_m":-30,"depth_abs_m":30,"sys":"m","depth_ft":98,"depth_fm":16},"geometry":{"type":"LineString","coordinates":[[-52.646484375,70.73792247221564],[-52.623610496520996,70.72897946208789]]}},{"type":"Feature","properties":{"layer":"contours","depth_m":-3.6576,"depth_abs_m":4,"sys":"ft","depth_ft":12,"depth_fm":2},"geometry":{"type":"LineString","coordinates":[[-52.646484375,70.73618337735537],[-52.641334533691406,70.73305817827402],[-52.634124755859375,70.7322368369417],[-52.62618541717529,70.72897946208789]]}},{"type":"Feature","properties":{"layer":"contours","depth_m":-2,"depth_abs_m":2,"sys":"m","depth_ft":7,"depth_fm":1},"geometry":{"type":"LineString","coordinates":[[-52.646484375,70.73612662908364],[-52.64146327972412,70.73305817827402],[-52.634124755859375,70.73219435285317],[-52.62627124786377,70.72897946208789]]}},{"type":"Feature","properties":{"layer":"contours","depth_m":-10,"depth_abs_m":10,"sys":"m","depth_ft":33,"depth_fm":5},"geometry":{"type":"LineString","coordinates":[[-52.646484375,70.73640628032288],[-52.64073371887207,70.73305817827402],[-52.634124755859375,70.73239261116198],[-52.62571334838867,70.72897946208789]]}},{"type":"Feature","properties":{"layer":"contours","depth_m":-54.864,"depth_abs_m":55,"sys":"ft","depth_ft":180,"depth_fm":30},"geometry":{"type":"LineString","coordinates":[[-52.646484375,70.73767701261522],[-52.64051914215088,70.736300731415],[-52.633609771728516,70.73460164240815],[-52.62627124786377,70.7326899949455],[-52.618632316589355,70.73059405322554],[-52.6129674911499,70.72897946208789]]}},{"type":"Feature","properties":{"layer":"contours","depth_m":-100,"depth_abs_m":100,"sys":"m","depth_ft":328,"depth_fm":55},"geometry":{"type":"LineString","coordinates":[[-52.646484375,70.73877971053598],[-52.64279365539551,70.73807046250187],[-52.63571262359619,70.73658389890028],[-52.62858867645264,70.73499810940466],[-52.62146472930908,70.73328474926578],[-52.61429786682129,70.73147210956019],[-52.6094913482666,70.73019749903798],[-52.60507106781006,70.72897946208789]]}},{"type":"Feature","properties":{"layer":"contours","depth_m":-36.576,"depth_abs_m":37,"sys":"ft","depth_ft":120,"depth_fm":20},"geometry":{"type":"LineString","coordinates":[[-52.646484375,70.73767990380216],[-52.646355628967285,70.73764574130622],[-52.644639015197754,70.73713606397892],[-52.64296531677246,70.73658389890028],[-52.63657093048096,70.73421932751343],[-52.6340389251709,70.73334139161322],[-52.631378173828125,70.73247757840785],[-52.62867450714111,70.73162788972823],[-52.62584209442139,70.73079232737531],[-52.622880935668945,70.72997089312024],[-52.61919021606445,70.72897946208789]]}},{"type":"Feature","properties":{"layer":"contours","depth_m":-50,"depth_abs_m":50,"sys":"m","depth_ft":164,"depth_fm":27},"geometry":{"type":"LineString","coordinates":[[-52.646484375,70.73812783067837],[-52.64549732208252,70.7378722603984],[-52.64296531677246,70.73713606397892],[-52.637128829956055,70.7351680214289],[-52.630863189697266,70.73317146409029],[-52.62459754943848,70.73127384213946],[-52.61670112609863,70.72897946208789]]}},{"type":"Feature","properties":{"layer":"contours","depth_m":-91.44,"depth_abs_m":91,"sys":"ft","depth_ft":300,"depth_fm":50},"geometry":{"type":"LineString","coordinates":[[-52.646484375,70.7384738075694],[-52.64249324798584,70.73765989882457],[-52.63777256011963,70.73664053191679],[-52.630648612976074,70.73502642817549],[-52.623395919799805,70.73328474926578],[-52.6161003112793,70.73142962384954],[-52.61120796203613,70.73012668496408],[-52.60704517364502,70.72897946208789]]}},{"type":"Feature","properties":{"layer":"contours","depth_m":-200,"depth_abs_m":200,"sys":"m","depth_ft":656,"depth_fm":109},"geometry":{"type":"LineString","coordinates":[[-52.62518763542175,70.7437608573713],[-52.61876106262207,70.74197747480603],[-52.61022090911865,70.73950029097132],[-52.601680755615234,70.73692369459678]]}}]}
