{"type":"FeatureCollection","features":[{"type":"Feature","properties":{"kind":"dem-land-sample","source":"Mapterhorn DEM z14 (Klimadatastyrelsen, CC BY 4.0)","note":"DEM land > 15 m outside the OSM-only shoreline near Naajaat (issue #19) \u2014 must be covered by the mask"},"geometry":{"type":"Point","coordinates":[-55.80047,73.13611]}},{"type":"Feature","properties":{"kind":"dem-land-sample","source":"Mapterhorn DEM z14 (Klimadatastyrelsen, CC BY 4.0)","note":"DEM land > 15 m outside the OSM-only shoreline near Naajaat (issue #19) \u2014 must be covered by the mask"},"geometry":{"type":"Point","coordinates":[-55.80005,73.13611]}},{"type":"Feature","properties":{"kind":"dem-land-sample","source":"Mapterhorn DEM z14 (Klimadatastyrelsen, CC BY 4.0)","note":"DEM land > 15 m outside the OSM-only shoreline near Naajaat (issue #19) \u2014 must be covered by the mask"},"geometry":{"type":"Point","coordinates":[-55.80077,73.13617]}},{"type":"Feature","properties":{"kind":"dem-land-sample","source":"Mapterhorn DEM z14 (Klimadatastyrelsen, CC BY 4.0)","note":"DEM land > 15 m outside the OSM-only shoreline near Naajaat (issue #19) \u2014 must be covered by the mask"},"geometry":{"type":"Point","coordinates":[-55.80059,73.13617]}},{"type":"Feature","properties":{"kind":"dem-land-sample","source":"Mapterhorn DEM z14 (Klimadatastyrelsen, CC BY 4.0)","note":"DEM land > 15 m outside the OSM-only shoreline near Naajaat (issue #19) \u2014 must be covered by the mask"},"geometry":{"type":"Point","coordinates":[-55.80041,73.13617]}},{"type":"Feature","properties":{"kind":"dem-land-sample","source":"Mapterhorn DEM z14 (Klimadatastyrelsen, CC BY 4.0)","note":"DEM land > 15 m outside the OSM-only shoreline near Naajaat (issue #19) \u2014 must be covered by the mask"},"geometry":{"type":"Point","coordinates":[-55.80023,73.13617]}},{"type":"Feature","properties":{"kind":"dem-land-sample","source":"Mapterhorn DEM z14 (Klimadatastyrelsen, CC BY 4.0)","note":"DEM land > 15 m outside the OSM-only shoreline near Naajaat (issue #19) \u2014 must be covered by the mask"},"geometry":{"type":"Point","coordinates":[-55.80005,73.13617]}},{"type":"Feature","properties":{"kind":"dem-land-sample","source":"Mapterhorn DEM z14 (Klimadatastyrelsen, CC BY 4.0)","note":"DEM land > 15 m outside the OSM-only shoreline near Naajaat (issue #19) \u2014 must be covered by the mask"},"geometry":{"type":"Point","coordinates":[-55.80083,73.13623]}},{"type":"Feature","properties":{"kind":"dem-land-sample","source":"Mapterhorn DEM z14 (Klimadatastyrelsen, CC BY 4.0)","note":"DEM land > 15 m outside the OSM-only shoreline near Naajaat (issue #19) \u2014 must be covered by the mask"},"geometry":{"type":"Point","coordinates":[-55.80065,73.13623]}},{"type":"Feature","properties":{"kind":"dem-land-sample","source":"Mapterhorn DEM z14 (Klimadatastyrelsen, CC BY 4.0)","note":"DEM land > 15 m outside the OSM-only shoreline near Naajaat (issue #19) \u2014 must be covered by the mask"},"geometry":{"type":"Point","coordinates":[-55.80047,73.13623]}},{"type":"Feature","properties":{"kind":"dem-land-sample","source":"Mapterhorn DEM z14 (Klimadatastyrelsen, CC BY 4.0)","note":"DEM land > 15 m outside the OSM-only shoreline near Naajaat (issue #19) \u2014 must be covered by the mask"},"geometry":{"type":"Point","coordinates":[-55.80029,73.13623]}},{"type":"Feature","properties":{"kind":"dem-land-sample","source":"Mapterhorn DEM z14 (Klimadatastyrelsen, CC BY 4.0)","note":"DEM land > 15 m outside the OSM-only shoreline near Naajaat (issue #19) \u2014 must be covered by the mask"},"geometry":{"type":"Point","coordinates":[-55.80011,73.13623]}}]}
