{"type":"FeatureCollection","features":[{"type":"Feature","properties":{"kind":"land"},"geometry":{"type":"Polygon","coordinates":[[[-55.8009991,73.1397791],[-55.805143,73.139781],[-55.8045774,73.140744],[-55.8050316,73.140853],[-55.8053605,73.1414844],[-55.8048436,73.1415707],[-55.8042954,73.1412482],[-55.8034182,73.1414117],[-55.8027604,73.1410165],[-55.8023931,73.1405946],[-55.8009991,73.1397791]]]}},{"type":"Feature","properties":{"kind":"land"},"geometry":{"type":"Polygon","coordinates":[[[-55.8014199,73.14933],[-55.8000405,73.148681],[-55.8001048,73.1477312],[-55.8002845,73.1471404],[-55.8007719,73.1462733],[-55.800492,73.1462023],[-55.8004235,73.1457338],[-55.8007979,73.1454869],[-55.8001295,73.1451815],[-55.8007719,73.1447961],[-55.8012149,73.1446933],[-55.8008319,73.1446661],[-55.8008633,73.1445775],[-55.8011706,73.1444942],[-55.8006722,73.1444814],[-55.8004549,73.1443167],[-55.8023091,73.1436806],[-55.8034995,73.1438124],[-55.8037501,73.1437692],[-55.8033977,73.1435626],[-55.8037345,73.1434922],[-55.8042313,73.1435584],[-55.8051194,73.1433329],[-55.8054406,73.1433522],[-55.805352,73.1434293],[-55.8057397,73.1435513],[-55.8061384,73.1434582],[-55.8068362,73.1434582],[-55.8068694,73.1432783],[-55.8062491,73.1432076],[-55.8065977,73.1428985],[-55.8070148,73.1428202],[-55.8071423,73.1427011],[-55.807751,73.142497],[-55.8078359,73.1423276],[-55.8087191,73.1421734],[-55.8082746,73.1420296],[-55.8082428,73.141698],[-55.8091867,73.1412166],[-55.8081874,73.1411712],[-55.8080767,73.1408597],[-55.8084865,73.1408372],[-55.8089295,73.1409496],[-55.8093355,73.1405172],[-55.8095697,73.1404213],[-55.8098326,73.1404277],[-55.8099281,73.1405687],[-55.8103265,73.1404586],[-55.8103531,73.1403984],[-55.8100735,73.1402745],[-55.810546875,73.14009617008314],[-55.810546875,73.15043991163012],[-55.80285687373618,73.15043991163012],[-55.8014199,73.14933]]]}},{"type":"Feature","properties":{"kind":"land"},"geometry":{"type":"Polygon","coordinates":[[[-55.7837195,73.126313],[-55.7837736,73.1264229],[-55.7839629,73.1264739],[-55.7849479,73.1266036],[-55.7869005,73.1259995],[-55.7879841,73.1259247],[-55.7879412,73.1260353],[-55.7871124,73.1266897],[-55.7869781,73.126938],[-55.7868556,73.1276235],[-55.7858553,73.1285925],[-55.7857066,73.1288436],[-55.7858688,73.1292162],[-55.7863284,73.1298047],[-55.7860446,73.1304206],[-55.7854092,73.1310678],[-55.7855309,73.1314679],[-55.7860446,73.1319856],[-55.7862338,73.1320641],[-55.7862473,73.1329152],[-55.7863284,73.1330917],[-55.7867339,73.1332211],[-55.7869232,73.1334251],[-55.7867475,73.13368],[-55.786031,73.1342801],[-55.7839223,73.1351036],[-55.7838142,73.1352605],[-55.7839493,73.1355468],[-55.7844089,73.1358997],[-55.7843549,73.1360762],[-55.7830166,73.1370212],[-55.7816649,73.1377035],[-55.7810836,73.1381505],[-55.7796237,73.1389033],[-55.7786381,73.1391478],[-55.7774055,73.1404139],[-55.7772982,73.1407127],[-55.7773894,73.1408045],[-55.777148,73.1409445],[-55.7765579,73.1411047],[-55.7748681,73.1409569],[-55.7705498,73.1418017],[-55.7685435,73.1425235],[-55.7683826,73.1428844],[-55.7685757,73.1429809],[-55.7685542,73.14304],[-55.7682538,73.1433138],[-55.7665479,73.1437835],[-55.764488,73.1441009],[-55.7632113,73.1442035],[-55.7603681,73.1441818],[-55.7564306,73.1437462],[-55.7536482,73.1438578],[-55.7529974,73.1437431],[-55.7525253,73.1434195],[-55.7521498,73.1433542],[-55.7501972,73.1434787],[-55.7489634,73.143404],[-55.7475901,73.1429529],[-55.7473862,73.1427444],[-55.7474506,73.1425297],[-55.7473326,73.1422373],[-55.7468283,73.1416181],[-55.7470536,73.1413505],[-55.7474399,73.1411389],[-55.7473326,73.1409865],[-55.7470214,73.1409274],[-55.7465816,73.1406909],[-55.7465816,73.1405353],[-55.7482231,73.1402459],[-55.7483626,73.1400686],[-55.748384,73.1398943],[-55.7489848,73.1396205],[-55.7509375,73.1391195],[-55.751152,73.1390105],[-55.7509381,73.1387278],[-55.7518368,73.1381998],[-55.7531482,73.1379528],[-55.7538124,73.1376564],[-55.7550642,73.1367474],[-55.7552175,73.1364781],[-55.7558476,73.1361668],[-55.7571845,73.1361224],[-55.7590239,73.1362533],[-55.7595859,73.1361273],[-55.7605652,73.1356456],[-55.7608717,73.1356332],[-55.761817,73.1357444],[-55.7628388,73.1360384],[-55.7635456,73.136073],[-55.7645334,73.135653],[-55.7654701,73.1355912],[-55.7660236,73.1356752],[-55.7660662,73.1357691],[-55.7657511,73.1359322],[-55.7657085,73.1360285],[-55.7673955,73.1364773],[-55.7683933,73.1363559],[-55.7699704,73.136415],[-55.7712042,73.1362874],[-55.7715368,73.136166],[-55.7721269,73.1358921],[-55.7723093,73.1357054],[-55.7723093,73.1355809],[-55.772084,73.1351918],[-55.7717192,73.1349646],[-55.7714403,73.1344448],[-55.771451,73.1341428],[-55.7725346,73.1339218],[-55.7714295,73.1330658],[-55.7714295,73.1328697],[-55.771569,73.1327016],[-55.7731569,73.1320509],[-55.7763219,73.1320167],[-55.7769978,73.1319015],[-55.7773304,73.1317614],[-55.777018,73.1309579],[-55.7776952,73.1303978],[-55.7786071,73.1302296],[-55.778811,73.1301207],[-55.7787466,73.1299837],[-55.7780707,73.1296381],[-55.7779098,73.1291804],[-55.7788754,73.128514],[-55.7792938,73.1283116],[-55.7800877,73.1281217],[-55.7808173,73.1276764],[-55.780946,73.1274086],[-55.7808066,73.1271501],[-55.7797659,73.127066],[-55.7795942,73.1269726],[-55.7806242,73.1264152],[-55.7808173,73.1262003],[-55.7825232,73.1258609],[-55.7833815,73.1254311],[-55.7835746,73.1251539],[-55.784038373912395,73.12494524712693],[-55.78904194878264,73.12494524712693],[-55.7877478,73.1255204],[-55.7837195,73.126313]]]}},{"type":"Feature","properties":{"kind":"land"},"geometry":{"type":"Polygon","coordinates":[[[-55.7758901,73.150308],[-55.776438,73.1502037],[-55.77499,73.1498498],[-55.7743952,73.1495957],[-55.7735969,73.1493937],[-55.773323,73.1491419],[-55.7741135,73.1488606],[-55.7744187,73.1486609],[-55.7738317,73.1485861],[-55.7732995,73.1486405],[-55.7731743,73.1485543],[-55.773323,73.1484703],[-55.7730882,73.1483614],[-55.7735343,73.1481663],[-55.7750605,73.1478827],[-55.7755301,73.1475968],[-55.7760388,73.1474697],[-55.7760858,73.1473654],[-55.775444,73.1473858],[-55.7764927,73.1471135],[-55.7767432,73.1468889],[-55.7766336,73.1467164],[-55.7766806,73.146637],[-55.7774946,73.1464214],[-55.7777215,73.1462467],[-55.7786451,73.1461287],[-55.7798504,73.1458065],[-55.780093,73.1455977],[-55.7804765,73.1454616],[-55.7807348,73.1452619],[-55.7819009,73.1450009],[-55.7825584,73.1449986],[-55.7832314,73.1448534],[-55.7835758,73.1448579],[-55.7841472,73.1455478],[-55.784875,73.1458473],[-55.7865656,73.1455886],[-55.7887961,73.1461605],[-55.790745,73.1469002],[-55.790698,73.1470137],[-55.7905258,73.1470999],[-55.7907685,73.1472996],[-55.790565,73.1473586],[-55.7907371,73.1474811],[-55.7906119,73.1475401],[-55.7909876,73.147649],[-55.7909093,73.1477783],[-55.7909641,73.1478623],[-55.7914102,73.1480665],[-55.7912567,73.1481491],[-55.7913741,73.148401],[-55.7919689,73.1487345],[-55.7916637,73.148941],[-55.7915697,73.1491111],[-55.7916324,73.1493244],[-55.7913115,73.149549],[-55.7914445,73.1496443],[-55.7912176,73.1496987],[-55.7912489,73.1498848],[-55.7910845,73.1500436],[-55.7906775,73.1501275],[-55.7890574,73.1501684],[-55.7874451,73.150343],[-55.7867527607003,73.15043991163012],[-55.77606510648894,73.15043991163012],[-55.7758901,73.150308]]]}},{"type":"Feature","properties":{"kind":"land"},"geometry":{"type":"Polygon","coordinates":[[[-55.77587127685547,73.15036894731875],[-55.77596542484652,73.15043991163012],[-55.775757775210465,73.15043991163012],[-55.77587127685547,73.15036894731875]]]}},{"type":"Feature","properties":{"kind":"land"},"geometry":{"type":"Polygon","coordinates":[[[-55.80488204956055,73.143219742972],[-55.80556869506836,73.1432695372386],[-55.80422775216951,73.14349739689607],[-55.80350875854492,73.14346871430503],[-55.80488204956055,73.143219742972]]]}},{"type":"Feature","properties":{"kind":"land"},"geometry":{"type":"Polygon","coordinates":[[[-55.801963806152344,73.14356830283825],[-55.803578168679685,73.14373795361533],[-55.80230234370362,73.14361948530777],[-55.80076217651367,73.14411603977094],[-55.801963806152344,73.14356830283825]]]}},{"type":"Feature","properties":{"kind":"land"},"geometry":{"type":"Polygon","coordinates":[[[-55.80127716064453,73.14979258616422],[-55.80110549926758,73.14924838544049],[-55.80138841740979,73.14938149684711],[-55.8021354675293,73.14999176323064],[-55.80127716064453,73.14979258616422]]]}},{"type":"Feature","properties":{"kind":"land"},"geometry":{"type":"Polygon","coordinates":[[[-55.78685760498047,73.14551027923595],[-55.789432525634766,73.14620739896846],[-55.790462493896484,73.14672879919317],[-55.7865686345777,73.14552743722842],[-55.78462600708008,73.14560986776917],[-55.78685760498047,73.14551027923595]]]}},{"type":"Feature","properties":{"kind":"land"},"geometry":{"type":"Polygon","coordinates":[[[-55.77655792236328,73.14655595883471],[-55.77741622924805,73.14615760470186],[-55.77964782714844,73.14575925056899],[-55.77981948852539,73.14551027923595],[-55.781192779541016,73.14501233656988],[-55.783424377441406,73.14476336523684],[-55.780708664721296,73.14520626513983],[-55.779821655078926,73.14575207727285],[-55.77664148454628,73.1465852913781],[-55.77604293823242,73.14715349003401],[-55.77655792236328,73.14655595883471]]]}},{"type":"Feature","properties":{"kind":"land"},"geometry":{"type":"Polygon","coordinates":[[[-55.77535629272461,73.14745225563365],[-55.77595135592001,73.14742970368822],[-55.775038707916025,73.14782572233443],[-55.77363967895508,73.14804978683294],[-55.77535629272461,73.14745225563365]]]}},{"type":"Feature","properties":{"kind":"land"},"geometry":{"type":"Polygon","coordinates":[[[-55.78634262084961,73.13191644445203],[-55.78634262084961,73.13261356418454],[-55.786293167881354,73.13202377260639],[-55.785583972553425,73.13143620199686],[-55.7856559753418,73.13092055911987],[-55.78634262084961,73.13191644445203]]]}},{"type":"Feature","properties":{"kind":"land"},"geometry":{"type":"Polygon","coordinates":[[[-55.78908920288086,73.1252938069932],[-55.788405393954875,73.1252938069932],[-55.789189686875474,73.12494524712693],[-55.78934164441456,73.12494524712693],[-55.78908920288086,73.1252938069932]]]}},{"type":"Feature","properties":{"kind":"land"},"geometry":{"type":"Polygon","coordinates":[[[-55.780677795410156,73.12609051525891],[-55.782626727664585,73.12574195539266],[-55.78078601296463,73.12614534877413],[-55.77981948852539,73.12673784072481],[-55.780677795410156,73.12609051525891]]]}},{"type":"Feature","properties":{"kind":"land"},"geometry":{"type":"Polygon","coordinates":[[[-55.760250091552734,73.1355514259144],[-55.76179504394531,73.1355514259144],[-55.76356494994033,73.13599957431387],[-55.760874006440254,73.13557305760644],[-55.7585334777832,73.13614895711369],[-55.760250091552734,73.1355514259144]]]}},{"type":"Feature","properties":{"kind":"land"},"geometry":{"type":"Polygon","coordinates":[[[-55.75510025024414,73.13624854564691],[-55.755615234375,73.13604936858047],[-55.75767517089844,73.13599957431387],[-55.75836181640625,73.13609916284707],[-55.75583264889729,73.13610726346315],[-55.754241943359375,73.13724443097905],[-55.75510025024414,73.13624854564691]]]}},{"type":"Feature","properties":{"kind":"land"},"geometry":{"type":"Polygon","coordinates":[[[-55.75183868408203,73.13799134497818],[-55.75336092536808,73.13779216791174],[-55.751815420450995,73.13814277182436],[-55.751495361328125,73.13829011057783],[-55.75183868408203,73.13799134497818]]]}},{"type":"Feature","properties":{"kind":"land"},"geometry":{"type":"Polygon","coordinates":[[[-55.74857711791992,73.1394851729764],[-55.75106087425806,73.13898950394184],[-55.748964747976814,73.13956370136397],[-55.74857711791992,73.1394851729764]]]}},{"type":"Feature","properties":{"kind":"land"},"geometry":{"type":"Polygon","coordinates":[[[-55.769691467285156,73.14307036017217],[-55.77089309692383,73.14272180030592],[-55.77381134033203,73.14282138883914],[-55.77260971069336,73.14346871430503],[-55.76986312866211,73.14346871430503],[-55.769691467285156,73.14307036017217]]]}},{"type":"Feature","properties":{"kind":"land"},"geometry":{"type":"Polygon","coordinates":[[[-55.785484313964844,73.14222385763983],[-55.785484313964844,73.14287118310574],[-55.783424377441406,73.1426720060393],[-55.785484313964844,73.14222385763983]]]}},{"type":"Feature","properties":{"kind":"land"},"geometry":{"type":"Polygon","coordinates":[[[-55.74308395385742,73.14172591497376],[-55.74256896972656,73.14137735510751],[-55.74462890625,73.14092920670804],[-55.744285583496094,73.14142714937411],[-55.74480056762695,73.14167612070715],[-55.74291229248047,73.1419250920402],[-55.74308395385742,73.14172591497376]]]}},{"type":"Feature","properties":{"kind":"land"},"geometry":{"type":"Polygon","coordinates":[[[-55.794410705566406,73.13843949337765],[-55.794410705566406,73.13774237364514],[-55.79509735107422,73.13729422524567],[-55.79423904418945,73.13704525391263],[-55.79423904418945,73.13674648831298],[-55.795955657958984,73.13580039724744],[-55.79853057861328,73.135601220181],[-55.80179214477539,73.13634813418012],[-55.801448822021484,73.13724443097905],[-55.796470642089844,73.13784196217836],[-55.79526901245117,73.13848928764425],[-55.794410705566406,73.13843949337765]]]}}]}
