{"type":"FeatureCollection","features":[{"type":"Feature","properties":{"kind":"land"},"geometry":{"type":"Polygon","coordinates":[[[-52.6459058,70.7355194],[-52.6452458,70.7353417],[-52.643829,70.7340193],[-52.6427668,70.7333379],[-52.6415169,70.7327077],[-52.640385,70.7323501],[-52.6397305,70.7322728],[-52.6390505,70.7323171],[-52.6390958,70.732371],[-52.6389688,70.7323826],[-52.638927,70.7323328],[-52.6369143,70.73242],[-52.6351762,70.7321483],[-52.6331753,70.7313181],[-52.6319619,70.7312764],[-52.6318595,70.7312076],[-52.6319581,70.7311237],[-52.6316054,70.7310424],[-52.6317192,70.7309785],[-52.629844,70.729415],[-52.6290597750561,70.72897946208789],[-52.646484375,70.72897946208789],[-52.646484375,70.73675281337135],[-52.6459058,70.7355194]]]}}]}
