{"type":"FeatureCollection","features":[{"type":"Feature","properties":{"source":"Natural Earth 10m land","licence":"public domain","safety":"not-for-navigation"},"geometry":{"type":"MultiPolygon","coordinates":[[[[-50.94273841099994,70.46979401200008],[-50.96353105399993,70.48480866100005],[-51.00426184799994,70.49721914300005],[-51.07990475199995,70.51072825700004],[-51.19025631399995,70.50250885600008],[-51.22329667899993,70.51072825700004],[-51.24058997299994,70.53436920800004],[-51.32591712099992,70.55540599200003],[-51.34740149599992,70.57160065300008],[-51.31944739499994,70.58295319200005],[-51.23070227799991,70.60635000200006],[-51.207915818999936,70.62230052300004],[-51.194976365999935,70.62848541900007],[-51.18228105399993,70.62620677300004],[-51.17650305899991,70.61896393400008],[-51.17540442599994,70.60976797100005],[-51.177805141999954,70.60040924700007],[-51.18228105399993,70.59271881700005],[-51.16124426999994,70.57941315300008],[-51.130197719999956,70.57099030200004],[-51.03648841099994,70.56000397300005],[-50.97492428299995,70.53656647300005],[-50.94310462099992,70.53123607000003],[-50.91576087099992,70.53143952000005],[-50.90575110599991,70.52667877800008],[-50.90176347599993,70.51414622600004],[-50.89683997299994,70.51023997600004],[-50.88585364499994,70.51080963700008],[-50.874256964999915,70.51398346600007],[-50.86766516799992,70.51764557500007],[-50.864491339999915,70.53530508000006],[-50.87840735599991,70.54718659100007],[-50.89745032499991,70.55780670800004],[-50.90925045499995,70.57160065300008],[-50.88975989499994,70.57192617400005],[-50.78661048099991,70.54808177300004],[-50.73729407499991,70.54486725500004],[-50.76475989499994,70.56207916900007],[-50.79869544199994,70.57282135600008],[-50.86766516799992,70.58527252800008],[-50.85757402299993,70.59320709800005],[-50.83967037699995,70.60415273600006],[-50.83348548099991,70.61318594000005],[-50.85399329299992,70.61298248900005],[-50.89293372299994,70.60228099200003],[-50.91234290299991,70.59951406500005],[-50.93260657499991,70.60101959800005],[-50.991118943999936,70.61318594000005],[-50.96971594999991,70.63898346600007],[-50.92674719999991,70.65558502800008],[-50.87873287699995,70.66254303600005],[-50.756418423999946,70.64972565300008],[-50.71939042899993,70.62905508000006],[-50.7,70.62445336653143],[-50.7,70.45482572569193],[-50.70800087670129,70.45],[-51.07126273391317,70.45],[-51.09414628799993,70.46979401200008],[-50.94273841099994,70.46979401200008]]],[[[-52.12144934799994,70.60175202000005],[-52.09410559799994,70.58527252800008],[-52.052072719999956,70.56915924700007],[-51.96507727799991,70.54954661700003],[-51.843006964999915,70.50726959800005],[-51.67528235599991,70.47431061400005],[-51.60367023252366,70.45],[-52.85,70.45],[-52.85,70.75905818499693],[-52.79063880099994,70.75678131700005],[-52.45034745999993,70.70258209800005],[-52.26992753799993,70.63544342700004],[-52.12144934799994,70.60175202000005]]],[[[-51.58340410099993,70.65814850500004],[-51.861317511999914,70.72304922100005],[-51.856353318999936,70.73647695500006],[-51.847320115999935,70.74355703300006],[-51.820423956999946,70.75039297100005],[-51.80064856699994,70.74404531500005],[-51.71336829299992,70.73407623900005],[-51.67870032499991,70.72504303600005],[-51.66307532499991,70.72304922100005],[-51.62474524599992,70.71771881700005],[-51.505116339999915,70.67462799700007],[-51.53380286399994,70.65497467700004],[-51.58340410099993,70.65814850500004]]],[[[-51.080067511999914,70.67780182500007],[-51.07848059799994,70.68939850500004],[-51.08458411399994,70.70400625200006],[-51.08731035099993,70.72304922100005],[-51.064564581999946,70.74852122600004],[-51.05992591099994,70.76097239800004],[-51.07990475199995,70.76398346600007],[-51.09935462099992,70.75702545800004],[-51.12067623599995,70.74323151200008],[-51.16942298099991,70.70270416900007],[-51.17625891799992,70.69879791900007],[-51.18976803299995,70.69513580900008],[-51.20811926999994,70.69253164300005],[-51.39915930899991,70.69733307500007],[-51.43000240799995,70.70937734600005],[-51.44513912699995,70.73191966400003],[-51.43822180899991,70.74697500200006],[-51.416900193999936,70.75527578300006],[-51.388742641999954,70.75779857000003],[-51.33934485599991,70.75535716400003],[-51.31395423099991,70.75690338700008],[-51.29214433499993,70.76398346600007],[-51.281320766999954,70.77265045800004],[-51.27794348899994,70.78050364800004],[-51.276600714999915,70.78876373900005],[-51.27171790299991,70.79877350500004],[-51.26085364499994,70.81020742400005],[-51.25072180899991,70.81386953300006],[-51.170765753999945,70.80609772300005],[-51.09898841099994,70.78799062700006],[-51.04002844999991,70.78815338700008],[-51.01162675699993,70.78449127800008],[-50.81859290299991,70.72093333500004],[-50.7,70.70822431443682],[-50.7,70.65728163962503],[-50.91539466099994,70.68891022300005],[-51.10041256399995,70.66095612200007],[-51.10041256399995,70.66779205900008],[-51.080067511999914,70.67780182500007]]],[[[-51.56582597599993,70.87970612200007],[-51.593820766999954,70.85960521000004],[-51.63121497299994,70.84784577000005],[-51.665353969999956,70.84552643400008],[-51.841135219999956,70.85276927300004],[-51.930246548999946,70.86640045800004],[-52.09520423099991,70.86066315300008],[-52.14248613199993,70.87323639500005],[-52.161366339999915,70.89166901200008],[-52.156809048999946,70.90973541900007],[-52.143422003999945,70.92938873900005],[-52.13573157499991,70.95270416900007],[-52.11392167899993,70.96963125200006],[-52.064523891999954,70.97858307500007],[-52.01109778599994,70.98053620000007],[-51.93830318899995,70.97431061400005],[-51.85692298099991,70.94863515800006],[-51.81663977799991,70.94212474200003],[-51.77806555899991,70.93602122600004],[-51.66954505099994,70.89435455900008],[-51.58775794199994,70.88825104400007],[-51.56582597599993,70.87970612200007]]],[[[-50.89411373599995,70.80805084800005],[-50.91470292899993,70.81610748900005],[-50.91539466099994,70.82542552300004],[-50.920033331999946,70.83869049700007],[-50.89781653599994,70.85203685100004],[-50.84715735599991,70.87323639500005],[-50.88634192599994,70.88108958500004],[-50.94025631399995,70.87588125200006],[-50.993804490999935,70.86334870000007],[-51.032093878999945,70.84931061400005],[-51.07298743399991,70.84048086100006],[-51.12364661399994,70.84389883000006],[-51.173166469999956,70.85602448100008],[-51.210275844999956,70.87323639500005],[-51.18976803299995,70.88068268400008],[-51.18976803299995,70.88690827000005],[-51.456695115999935,70.90814850500004],[-51.53628495999993,70.93036530200004],[-51.58922278599994,70.92991771000004],[-51.61432857999995,70.93528880400004],[-51.66283118399991,70.96190013200004],[-51.91486568899995,71.02142975500004],[-51.95689856699994,71.02411530200004],[-51.946197068999936,71.03143952000005],[-51.90916907499991,71.04515208500004],[-51.891835089999915,71.05658600500004],[-51.88255774599992,71.06126536700003],[-51.86754309799994,71.06565989800004],[-51.83193925699993,71.06940338700008],[-51.51990719299994,71.01581452000008],[-51.207875128999945,70.96222565300008],[-50.997710740999935,70.96515534100007],[-50.95531165299991,70.97431061400005],[-50.93614661399994,70.98688385600008],[-50.930978969999956,71.01260000200006],[-50.91539466099994,71.02411530200004],[-51.20213782499991,71.01764557500007],[-51.251210089999915,71.02411530200004],[-51.31285559799994,71.04279205900008],[-51.419178839999915,71.05076732000003],[-51.476551886999914,71.06378815300008],[-51.48477128799993,71.07037995000007],[-51.47061113199993,71.08246491100005],[-51.43106035099993,71.09170156500005],[-51.29214433499993,71.07868073100008],[-51.31753495999993,71.08612702000005],[-51.350453253999945,71.08759186400005],[-51.38003495999993,71.09324778900003],[-51.39586341099994,71.11347077000005],[-51.35459595293595,71.12],[-50.7,71.12],[-50.7,70.7441749477324],[-50.71471106699994,70.74433014500005],[-50.740223761999914,70.75604889500005],[-50.73729407499991,70.78449127800008],[-50.89411373599995,70.80805084800005]]],[[[-52.178293423999946,71.10346100500004],[-52.22476152299993,71.11652252800008],[-52.230860898626446,71.12],[-51.93648415023803,71.12],[-51.96422278599994,71.11652252800008],[-52.00487219999991,71.10293203300006],[-52.025502081999946,71.09979889500005],[-52.178293423999946,71.10346100500004]]],[[[-51.71168126521695,71.12],[-51.48390503905898,71.12],[-51.50877844999991,71.11530182500007],[-51.673939581999946,71.11090729400007],[-51.71117102799991,71.11969635600008],[-51.71168126521695,71.12]]]]}}]}