{"type": "FeatureCollection", "features": [{"type": "Feature", "id": 32991, "geometry": {"type": "Point", "coordinates": [-52.13146336999995, 70.68063273700005]}, "properties": {"globalId": "781CEB5A-0293-46BA-9214-BCBDB807B978", "recordId": 32991, "officialName": "Uummannaq", "danishName": null, "oldOfficialName": "Ùmánaq", "featureKind": "town", "typeCode": 21, "typeLabel": "By", "isLocality": true, "isLocalityShadow": false, "importance": 1000, "minZoom": 2.6, "zoomBand": "locality", "municipalityCode": 960, "municipalityName": "Avannaata kommunia", "localityCode": "1500", "longitude": -52.13146336999995, "latitude": 70.68063273700005}}, {"type": "Feature", "id": 31340, "geometry": {"type": "Point", "coordinates": [-52.690672726999935, 70.73553919800008]}, "properties": {"globalId": "6C3F419B-E78F-4F8F-A183-6B5BE8C7BF70", "recordId": 31340, "officialName": "Qaarsut", "danishName": null, "oldOfficialName": "Qaersut", "featureKind": "settlement", "typeCode": 23, "typeLabel": "Bygd", "isLocality": true, "isLocalityShadow": false, "importance": 920, "minZoom": 3.6, "zoomBand": "locality", "municipalityCode": 960, "municipalityName": "Avannaata kommunia", "localityCode": "1502", "longitude": -52.690672726999935, "latitude": 70.73553919800008}}, {"type": "Feature", "id": 31341, "geometry": {"type": "Point", "coordinates": [-51.63200974399996, 70.80976199900005]}, "properties": {"globalId": "63E1B202-897D-422D-9BAB-67A5905A3D35", "recordId": 31341, "officialName": "Saattut", "danishName": null, "oldOfficialName": null, "featureKind": "settlement", "typeCode": 23, "typeLabel": "Bygd", "isLocality": true, "isLocalityShadow": false, "importance": 920, "minZoom": 3.6, "zoomBand": "locality", "municipalityCode": 960, "municipalityName": "Avannaata kommunia", "localityCode": "1504", "longitude": -51.63200974399996, "latitude": 70.80976199900005}}, {"type": "Feature", "id": 32990, "geometry": {"type": "Point", "coordinates": [-51.30491607399995, 70.50186907500006]}, "properties": {"globalId": "03633E83-B2A7-4C4C-9477-D3B829FC4F47", "recordId": 32990, "officialName": "Ikerasak", "danishName": null, "oldOfficialName": null, "featureKind": "settlement", "typeCode": 23, "typeLabel": "Bygd", "isLocality": true, "isLocalityShadow": false, "importance": 920, "minZoom": 3.6, "zoomBand": "locality", "municipalityCode": 960, "municipalityName": "Avannaata kommunia", "localityCode": "1503", "longitude": -51.30491607399995, "latitude": 70.50186907500006}}, {"type": "Feature", "id": 31342, "geometry": {"type": "Point", "coordinates": [-51.88486752399996, 71.05101708400008]}, "properties": {"globalId": "41F81232-E854-4218-9771-29A80535C589", "recordId": 31342, "officialName": "Ukkusissat", "danishName": null, "oldOfficialName": "Uvkusigssat", "featureKind": "settlement", "typeCode": 23, "typeLabel": "Bygd", "isLocality": true, "isLocalityShadow": false, "importance": 920, "minZoom": 3.6, "zoomBand": "locality", "municipalityCode": 960, "municipalityName": "Avannaata kommunia", "localityCode": "1505", "longitude": -51.88486752399996, "latitude": 71.05101708400008}}, {"type": "Feature", "id": 27721, "geometry": {"type": "Point", "coordinates": [-51.76030916999997, 70.73428140500005]}, "properties": {"globalId": "84DD75DC-C497-4A23-AA43-E754FAFA36B9", "recordId": 27721, "officialName": "Nuukassak Qaqortukassak", "danishName": null, "oldOfficialName": "Nûkavsak qaqortukavsak", "featureKind": "other", "typeCode": 118, "typeLabel": "Næs", "isLocality": false, "isLocalityShadow": false, "importance": 320, "minZoom": 9.4, "zoomBand": "local", "municipalityCode": 960, "municipalityName": "Avannaata kommunia", "localityCode": "1504", "longitude": -51.76030916999997, "latitude": 70.73428140500005}}, {"type": "Feature", "id": 27720, "geometry": {"type": "Point", "coordinates": [-51.72163909699998, 70.72947339300003]}, "properties": {"globalId": "52E7916F-EE0B-40F1-9002-B6E3ABCE38F3", "recordId": 27720, "officialName": "Qeqertannguaq", "danishName": null, "oldOfficialName": "Qeqertánguaq", "featureKind": "other", "typeCode": 181, "typeLabel": "Ø", "isLocality": false, "isLocalityShadow": false, "importance": 600, "minZoom": 6.4, "zoomBand": "regional", "municipalityCode": 960, "municipalityName": "Avannaata kommunia", "localityCode": "1504", "longitude": -51.72163909699998, "latitude": 70.72947339300003}}, {"type": "Feature", "id": 27704, "geometry": {"type": "Point", "coordinates": [-51.746894647999966, 70.80040731100007]}, "properties": {"globalId": "0841420F-DAA4-4947-8C7D-796B32AEC57C", "recordId": 27704, "officialName": "Oqqorliit", "danishName": null, "oldOfficialName": "Orqordlît", "featureKind": "other", "typeCode": 181, "typeLabel": "Ø", "isLocality": false, "isLocalityShadow": false, "importance": 600, "minZoom": 6.4, "zoomBand": "regional", "municipalityCode": 960, "municipalityName": "Avannaata kommunia", "localityCode": "1504", "longitude": -51.746894647999966, "latitude": 70.80040731100007}}, {"type": "Feature", "id": 27703, "geometry": {"type": "Point", "coordinates": [-51.72747930699995, 70.79575804800004]}, "properties": {"globalId": "FC5C1F07-D6E2-4C32-BF4B-3EFC33D500E7", "recordId": 27703, "officialName": "Assorliit", "danishName": null, "oldOfficialName": "Agssordlît", "featureKind": "other", "typeCode": 181, "typeLabel": "Ø", "isLocality": false, "isLocalityShadow": false, "importance": 600, "minZoom": 6.4, "zoomBand": "regional", "municipalityCode": 960, "municipalityName": "Avannaata kommunia", "localityCode": "1504", "longitude": -51.72747930699995, "latitude": 70.79575804800004}}, {"type": "Feature", "id": 27722, "geometry": {"type": "Point", "coordinates": [-51.79723218899994, 70.73629269200006]}, "properties": {"globalId": "082F0C12-7D1B-4834-B01C-36BCC778A6F7", "recordId": 27722, "officialName": "Tuapaarsuit", "danishName": null, "oldOfficialName": "Tuapârssuit", "featureKind": "other", "typeCode": 163, "typeLabel": "Strand", "isLocality": false, "isLocalityShadow": false, "importance": 180, "minZoom": 10.5, "zoomBand": "detail", "municipalityCode": 960, "municipalityName": "Avannaata kommunia", "localityCode": "1504", "longitude": -51.79723218899994, "latitude": 70.73629269200006}}, {"type": "Feature", "id": 32935, "geometry": {"type": "Point", "coordinates": [-51.740459176999934, 70.68943795600006]}, "properties": {"globalId": "9D1EDBB6-DBAA-4EE9-979D-E6A0EAB75DB6", "recordId": 32935, "officialName": "Salliaruseq", "danishName": "Storøen", "oldOfficialName": "Sagdliaruseq", "featureKind": "other", "typeCode": 181, "typeLabel": "Ø", "isLocality": false, "isLocalityShadow": false, "importance": 600, "minZoom": 6.4, "zoomBand": "regional", "municipalityCode": 960, "municipalityName": "Avannaata kommunia", "localityCode": "1500", "longitude": -51.740459176999934, "latitude": 70.68943795600006}}, {"type": "Feature", "id": 31802, "geometry": {"type": "Point", "coordinates": [-51.68883684499997, 70.72296929400005]}, "properties": {"globalId": "527F8604-C18D-4D38-A8FC-9395CF10EBFF", "recordId": 31802, "officialName": "Niaqornaaroq", "danishName": null, "oldOfficialName": null, "featureKind": "other", "typeCode": 118, "typeLabel": "Næs", "isLocality": false, "isLocalityShadow": false, "importance": 320, "minZoom": 9.4, "zoomBand": "local", "municipalityCode": 960, "municipalityName": "Avannaata kommunia", "localityCode": "1504", "longitude": -51.68883684499997, "latitude": 70.72296929400005}}, {"type": "Feature", "id": 32929, "geometry": {"type": "Point", "coordinates": [-51.72865791799995, 70.68339907500007]}, "properties": {"globalId": "69492D64-1B1B-434F-AEE4-98C7490D54F1", "recordId": 32929, "officialName": "Kuussuaq", "danishName": null, "oldOfficialName": "Kûgssuaq", "featureKind": "other", "typeCode": 35, "typeLabel": "Elv", "isLocality": false, "isLocalityShadow": false, "importance": 450, "minZoom": 8.2, "zoomBand": "local", "municipalityCode": 960, "municipalityName": "Avannaata kommunia", "localityCode": "1500", "longitude": -51.72865791799995, "latitude": 70.68339907500007}}, {"type": "Feature", "id": 32919, "geometry": {"type": "Point", "coordinates": [-51.81850245299995, 70.72697522000004]}, "properties": {"globalId": "CBD65064-FE4A-4904-BF62-21FCF2C36E0F", "recordId": 32919, "officialName": "Inussuttalik", "danishName": null, "oldOfficialName": "Inugsugtalik", "featureKind": "other", "typeCode": 49, "typeLabel": "Fjeld", "isLocality": false, "isLocalityShadow": false, "importance": 520, "minZoom": 7.4, "zoomBand": "regional", "municipalityCode": 960, "municipalityName": "Avannaata kommunia", "localityCode": "1504", "longitude": -51.81850245299995, "latitude": 70.72697522000004}}, {"type": "Feature", "id": 27724, "geometry": {"type": "Point", "coordinates": [-51.82406099099995, 70.71416519400003]}, "properties": {"globalId": "69EA7018-DE7B-4618-A41D-D219FC011FFF", "recordId": 27724, "officialName": "Qoororsuaq", "danishName": null, "oldOfficialName": "Qôrorssuaq", "featureKind": "other", "typeCode": 96, "typeLabel": "Kløft", "isLocality": false, "isLocalityShadow": false, "importance": 260, "minZoom": 10, "zoomBand": "detail", "municipalityCode": 960, "municipalityName": "Avannaata kommunia", "localityCode": "1500", "longitude": -51.82406099099995, "latitude": 70.71416519400003}}, {"type": "Feature", "id": 27719, "geometry": {"type": "Point", "coordinates": [-51.83448448499996, 70.73522510800007]}, "properties": {"globalId": "E8491B8A-7877-47E3-BEF0-E33E6C1EF1CE", "recordId": 27719, "officialName": "Alannguaraq", "danishName": null, "oldOfficialName": "Alánguaraq", "featureKind": "other", "typeCode": 101, "typeLabel": "Kyst", "isLocality": false, "isLocalityShadow": false, "importance": 430, "minZoom": 8.4, "zoomBand": "local", "municipalityCode": 960, "municipalityName": "Avannaata kommunia", "localityCode": "1504", "longitude": -51.83448448499996, "latitude": 70.73522510800007}}, {"type": "Feature", "id": 27723, "geometry": {"type": "Point", "coordinates": [-51.83549716999994, 70.73544057700008]}, "properties": {"globalId": "177FA368-D44E-49CC-B0A8-FA48792E3E57", "recordId": 27723, "officialName": "Nuussuatsiakassak", "danishName": null, "oldOfficialName": "Nûgssuatsiakavsak", "featureKind": "other", "typeCode": 118, "typeLabel": "Næs", "isLocality": false, "isLocalityShadow": false, "importance": 320, "minZoom": 9.4, "zoomBand": "local", "municipalityCode": 960, "municipalityName": "Avannaata kommunia", "localityCode": "1504", "longitude": -51.83549716999994, "latitude": 70.73544057700008}}, {"type": "Feature", "id": 32930, "geometry": {"type": "Point", "coordinates": [-51.68845493599997, 70.68824460400003]}, "properties": {"globalId": "6676E02E-2E5F-4531-ABA9-707DB34BD09F", "recordId": 32930, "officialName": "Tasersuaq", "danishName": null, "oldOfficialName": "Taserssuaq", "featureKind": "other", "typeCode": 171, "typeLabel": "Type 171", "isLocality": false, "isLocalityShadow": false, "importance": 180, "minZoom": 10.5, "zoomBand": "detail", "municipalityCode": 960, "municipalityName": "Avannaata kommunia", "localityCode": "1504", "longitude": -51.68845493599997, "latitude": 70.68824460400003}}, {"type": "Feature", "id": 32927, "geometry": {"type": "Point", "coordinates": [-51.739873469999964, 70.66332197400004]}, "properties": {"globalId": "975A6085-2FAC-4367-9EF0-B72E063A2366", "recordId": 32927, "officialName": "Nakkarajooq", "danishName": null, "oldOfficialName": "Nákarajôq", "featureKind": "other", "typeCode": 53, "typeLabel": "Type 53", "isLocality": false, "isLocalityShadow": false, "importance": 180, "minZoom": 10.5, "zoomBand": "detail", "municipalityCode": 960, "municipalityName": "Avannaata kommunia", "localityCode": "1500", "longitude": -51.739873469999964, "latitude": 70.66332197400004}}, {"type": "Feature", "id": 32918, "geometry": {"type": "Point", "coordinates": [-51.83331180999994, 70.71806393800006]}, "properties": {"globalId": "92F1046C-D006-4493-BC43-BE16CEDD06F3", "recordId": 32918, "officialName": "Kuussuaq", "danishName": null, "oldOfficialName": "Kûgssuaq", "featureKind": "other", "typeCode": 35, "typeLabel": "Elv", "isLocality": false, "isLocalityShadow": false, "importance": 450, "minZoom": 8.2, "zoomBand": "local", "municipalityCode": 960, "municipalityName": "Avannaata kommunia", "localityCode": "1500", "longitude": -51.83331180999994, "latitude": 70.71806393800006}}, {"type": "Feature", "id": 32928, "geometry": {"type": "Point", "coordinates": [-51.70800965099994, 70.66669080700007]}, "properties": {"globalId": "2F740613-B64F-40B9-9D85-51B1570914E6", "recordId": 32928, "officialName": "Innarsuaq", "danishName": null, "oldOfficialName": "Ivnarssuaq", "featureKind": "other", "typeCode": 8, "typeLabel": "Fjeldvæg", "isLocality": false, "isLocalityShadow": false, "importance": 270, "minZoom": 10, "zoomBand": "detail", "municipalityCode": 960, "municipalityName": "Avannaata kommunia", "localityCode": "1500", "longitude": -51.70800965099994, "latitude": 70.66669080700007}}, {"type": "Feature", "id": 32926, "geometry": {"type": "Point", "coordinates": [-51.77842331699998, 70.65463573400007]}, "properties": {"globalId": "E911B373-6F0F-4DDF-BA7E-EC9A1FD159A4", "recordId": 32926, "officialName": "Sisussat Nuuat", "danishName": null, "oldOfficialName": "Sisugssat nûat", "featureKind": "other", "typeCode": 118, "typeLabel": "Næs", "isLocality": false, "isLocalityShadow": false, "importance": 320, "minZoom": 9.4, "zoomBand": "local", "municipalityCode": 960, "municipalityName": "Avannaata kommunia", "localityCode": "1500", "longitude": -51.77842331699998, "latitude": 70.65463573400007}}, {"type": "Feature", "id": 27658, "geometry": {"type": "Point", "coordinates": [-51.73047625199996, 70.84880271900005]}, "properties": {"globalId": "A1806F0E-DEA3-4551-8EE7-7AE1CBE6C1CD", "recordId": 27658, "officialName": "Umiasussuup Nuua", "danishName": null, "oldOfficialName": "Umiasugssûp nûa", "featureKind": "other", "typeCode": 118, "typeLabel": "Næs", "isLocality": false, "isLocalityShadow": false, "importance": 320, "minZoom": 9.4, "zoomBand": "local", "municipalityCode": 960, "municipalityName": "Avannaata kommunia", "localityCode": "1504", "longitude": -51.73047625199996, "latitude": 70.84880271900005}}, {"type": "Feature", "id": 32931, "geometry": {"type": "Point", "coordinates": [-51.68748410899997, 70.67156281200005]}, "properties": {"globalId": "36954F55-A097-4F11-B6D6-B452D7883174", "recordId": 32931, "officialName": "Qorlortorsuaq", "danishName": null, "oldOfficialName": "Qordlortorssuaq", "featureKind": "other", "typeCode": 64, "typeLabel": "Vandfald", "isLocality": false, "isLocalityShadow": false, "importance": 180, "minZoom": 10.5, "zoomBand": "detail", "municipalityCode": 960, "municipalityName": "Avannaata kommunia", "localityCode": "1504", "longitude": -51.68748410899997, "latitude": 70.67156281200005}}, {"type": "Feature", "id": 27655, "geometry": {"type": "Point", "coordinates": [-51.707111690999966, 70.84280365600006]}, "properties": {"globalId": "8BBC9AFD-419E-4C14-A90E-65D7EB8728DE", "recordId": 27655, "officialName": "Qerrorsuit", "danishName": null, "oldOfficialName": "Qerrorssuit", "featureKind": "other", "typeCode": 118, "typeLabel": "Næs", "isLocality": false, "isLocalityShadow": false, "importance": 320, "minZoom": 9.4, "zoomBand": "local", "municipalityCode": 960, "municipalityName": "Avannaata kommunia", "localityCode": "1504", "longitude": -51.707111690999966, "latitude": 70.84280365600006}}, {"type": "Feature", "id": 27656, "geometry": {"type": "Point", "coordinates": [-51.71201428599994, 70.84620530900008]}, "properties": {"globalId": "276144A1-0C01-4891-ADC5-AB0EFE4B9675", "recordId": 27656, "officialName": "Umiasussuup Innaa", "danishName": null, "oldOfficialName": "Umiasugssûp ivnâ", "featureKind": "other", "typeCode": 8, "typeLabel": "Fjeldvæg", "isLocality": false, "isLocalityShadow": false, "importance": 270, "minZoom": 10, "zoomBand": "detail", "municipalityCode": 960, "municipalityName": "Avannaata kommunia", "localityCode": "1504", "longitude": -51.71201428599994, "latitude": 70.84620530900008}}, {"type": "Feature", "id": 27661, "geometry": {"type": "Point", "coordinates": [-51.765748591999966, 70.85484444600007]}, "properties": {"globalId": "3B68100A-FA39-4CD7-BAFF-47AC068A0DC3", "recordId": 27661, "officialName": "Agguarfik", "danishName": null, "oldOfficialName": "Avguarfik", "featureKind": "other", "typeCode": 118, "typeLabel": "Næs", "isLocality": false, "isLocalityShadow": false, "importance": 320, "minZoom": 9.4, "zoomBand": "local", "municipalityCode": 960, "municipalityName": "Avannaata kommunia", "localityCode": "1504", "longitude": -51.765748591999966, "latitude": 70.85484444600007}}, {"type": "Feature", "id": 27660, "geometry": {"type": "Point", "coordinates": [-51.73382520399997, 70.85798763800005]}, "properties": {"globalId": "1C62F8AE-7500-45FF-99D5-992FE30AE148", "recordId": 27660, "officialName": "Umiasussuup Ilua", "danishName": null, "oldOfficialName": "Umiasugssûp ilua", "featureKind": "other", "typeCode": 57, "typeLabel": "Fjord", "isLocality": false, "isLocalityShadow": false, "importance": 760, "minZoom": 4.6, "zoomBand": "major", "municipalityCode": 960, "municipalityName": "Avannaata kommunia", "localityCode": "1504", "longitude": -51.73382520399997, "latitude": 70.85798763800005}}, {"type": "Feature", "id": 27717, "geometry": {"type": "Point", "coordinates": [-51.65010076599998, 70.70597285100007]}, "properties": {"globalId": "4F168B6E-9DE1-4183-A5D1-5999C4A0F293", "recordId": 27717, "officialName": "Aappaluttukassak", "danishName": null, "oldOfficialName": "Augpalugtukavsak", "featureKind": "other", "typeCode": 8, "typeLabel": "Fjeldvæg", "isLocality": false, "isLocalityShadow": false, "importance": 270, "minZoom": 10, "zoomBand": "detail", "municipalityCode": 960, "municipalityName": "Avannaata kommunia", "localityCode": "1504", "longitude": -51.65010076599998, "latitude": 70.70597285100007}}, {"type": "Feature", "id": 31790, "geometry": {"type": "Point", "coordinates": [-51.689455478999946, 70.84102590100008]}, "properties": {"globalId": "AF6D5A0D-6CCA-485C-A515-6633355B501D", "recordId": 31790, "officialName": "Narsannguaq", "danishName": null, "oldOfficialName": null, "featureKind": "other", "typeCode": 37, "typeLabel": "Slette", "isLocality": false, "isLocalityShadow": false, "importance": 180, "minZoom": 10.5, "zoomBand": "detail", "municipalityCode": 960, "municipalityName": "Avannaata kommunia", "localityCode": "1504", "longitude": -51.689455478999946, "latitude": 70.84102590100008}}, {"type": "Feature", "id": 27736, "geometry": {"type": "Point", "coordinates": [-51.81430511499997, 70.65276746700005]}, "properties": {"globalId": "DA332328-2375-4B87-A135-839B2774A831", "recordId": 27736, "officialName": "Kussininnguaq", "danishName": null, "oldOfficialName": "Kugssinínguaq", "featureKind": "other", "typeCode": 36, "typeLabel": "Elve", "isLocality": false, "isLocalityShadow": false, "importance": 180, "minZoom": 10.5, "zoomBand": "detail", "municipalityCode": 960, "municipalityName": "Avannaata kommunia", "localityCode": "1500", "longitude": -51.81430511499997, "latitude": 70.65276746700005}}, {"type": "Feature", "id": 27737, "geometry": {"type": "Point", "coordinates": [-51.814566517999936, 70.65277189400007]}, "properties": {"globalId": "2BB18D06-4B48-4C18-9AB5-BEFD88E9E597", "recordId": 27737, "officialName": "Ujarassuaq", "danishName": null, "oldOfficialName": "Ujaragssuaq", "featureKind": "other", "typeCode": 158, "typeLabel": "Sten", "isLocality": false, "isLocalityShadow": false, "importance": 180, "minZoom": 10.5, "zoomBand": "detail", "municipalityCode": 960, "municipalityName": "Avannaata kommunia", "localityCode": "1500", "longitude": -51.814566517999936, "latitude": 70.65277189400007}}, {"type": "Feature", "id": 32925, "geometry": {"type": "Point", "coordinates": [-51.81563862599995, 70.65186336100004]}, "properties": {"globalId": "26DB3261-F5A7-4F9A-9750-E84E333E5051", "recordId": 32925, "officialName": "Qernertunnguaq", "danishName": null, "oldOfficialName": "Qernertúnguaq", "featureKind": "other", "typeCode": 118, "typeLabel": "Næs", "isLocality": false, "isLocalityShadow": false, "importance": 320, "minZoom": 9.4, "zoomBand": "local", "municipalityCode": 960, "municipalityName": "Avannaata kommunia", "localityCode": "1500", "longitude": -51.81563862599995, "latitude": 70.65186336100004}}, {"type": "Feature", "id": 27654, "geometry": {"type": "Point", "coordinates": [-51.67348796099998, 70.84220604400008]}, "properties": {"globalId": "08884EB3-3BF9-43F1-BA85-18F87A7537AA", "recordId": 27654, "officialName": "Kangimut Sammisoq", "danishName": null, "oldOfficialName": "Kangimut sangmissoq", "featureKind": "other", "typeCode": 118, "typeLabel": "Næs", "isLocality": false, "isLocalityShadow": false, "importance": 320, "minZoom": 9.4, "zoomBand": "local", "municipalityCode": 960, "municipalityName": "Avannaata kommunia", "localityCode": "1504", "longitude": -51.67348796099998, "latitude": 70.84220604400008}}, {"type": "Feature", "id": 31791, "geometry": {"type": "Point", "coordinates": [-51.643350030999954, 70.80927495900005]}, "properties": {"globalId": "56FF37A8-30AD-468F-A423-7A1D04F672E6", "recordId": 31791, "officialName": "Timmisorniartarfik", "danishName": null, "oldOfficialName": null, "featureKind": "other", "typeCode": 118, "typeLabel": "Næs", "isLocality": false, "isLocalityShadow": false, "importance": 320, "minZoom": 9.4, "zoomBand": "local", "municipalityCode": 960, "municipalityName": "Avannaata kommunia", "localityCode": "1504", "longitude": -51.643350030999954, "latitude": 70.80927495900005}}, {"type": "Feature", "id": 32920, "geometry": {"type": "Point", "coordinates": [-51.86767534599994, 70.71155801400005]}, "properties": {"globalId": "7E4C7395-F186-453B-943E-5C25B1E0E888", "recordId": 32920, "officialName": "Qingaarsuup Qaava", "danishName": null, "oldOfficialName": "Qingârssûp qâva", "featureKind": "other", "typeCode": 49, "typeLabel": "Fjeld", "isLocality": false, "isLocalityShadow": false, "importance": 520, "minZoom": 7.4, "zoomBand": "regional", "municipalityCode": 960, "municipalityName": "Avannaata kommunia", "localityCode": "1500", "longitude": -51.86767534599994, "latitude": 70.71155801400005}}, {"type": "Feature", "id": 27657, "geometry": {"type": "Point", "coordinates": [-51.67493883599997, 70.84929711100006]}, "properties": {"globalId": "49630523-B602-4602-A706-FDBD763C6365", "recordId": 27657, "officialName": "Umiasussuk", "danishName": null, "oldOfficialName": "Umiasugssuk", "featureKind": "other", "typeCode": 73, "typeLabel": "Halvø", "isLocality": false, "isLocalityShadow": false, "importance": 670, "minZoom": 5.6, "zoomBand": "major", "municipalityCode": 960, "municipalityName": "Avannaata kommunia", "localityCode": "1504", "longitude": -51.67493883599997, "latitude": 70.84929711100006}}, {"type": "Feature", "id": 31796, "geometry": {"type": "Point", "coordinates": [-51.640454585999976, 70.81198885400005]}, "properties": {"globalId": "A848585F-D8A1-4F38-AD89-10EE64B2F6B6", "recordId": 31796, "officialName": "Pituffilikassak", "danishName": null, "oldOfficialName": null, "featureKind": "other", "typeCode": 181, "typeLabel": "Ø", "isLocality": false, "isLocalityShadow": false, "importance": 600, "minZoom": 6.4, "zoomBand": "regional", "municipalityCode": 960, "municipalityName": "Avannaata kommunia", "localityCode": "1504", "longitude": -51.640454585999976, "latitude": 70.81198885400005}}, {"type": "Feature", "id": 27694, "geometry": {"type": "Point", "coordinates": [-51.64098361199996, 70.81150350700005]}, "properties": {"globalId": "24033D9B-88FE-48BE-9123-817B550E2369", "recordId": 27694, "officialName": "Niaqussat", "danishName": null, "oldOfficialName": "Niaqússat", "featureKind": "other", "typeCode": 118, "typeLabel": "Næs", "isLocality": false, "isLocalityShadow": false, "importance": 320, "minZoom": 9.4, "zoomBand": "local", "municipalityCode": 960, "municipalityName": "Avannaata kommunia", "localityCode": "1504", "longitude": -51.64098361199996, "latitude": 70.81150350700005}}, {"type": "Feature", "id": 27662, "geometry": {"type": "Point", "coordinates": [-51.81741676299998, 70.85884354300003]}, "properties": {"globalId": "F2623DEF-56E5-418C-B5AA-491D8FD85A53", "recordId": 27662, "officialName": "Qorlortorsuaq", "danishName": null, "oldOfficialName": "Qordlortorssuaq", "featureKind": "other", "typeCode": 64, "typeLabel": "Vandfald", "isLocality": false, "isLocalityShadow": false, "importance": 180, "minZoom": 10.5, "zoomBand": "detail", "municipalityCode": 960, "municipalityName": "Avannaata kommunia", "localityCode": "1504", "longitude": -51.81741676299998, "latitude": 70.85884354300003}}, {"type": "Feature", "id": 31792, "geometry": {"type": "Point", "coordinates": [-51.631835570999954, 70.80675654200007]}, "properties": {"globalId": "E697C112-EC90-428B-A48A-D3F887D17406", "recordId": 31792, "officialName": "Saqqarliit", "danishName": null, "oldOfficialName": null, "featureKind": "other", "typeCode": 105, "typeLabel": "Landareal", "isLocality": false, "isLocalityShadow": false, "importance": 560, "minZoom": 7, "zoomBand": "regional", "municipalityCode": 960, "municipalityName": "Avannaata kommunia", "localityCode": "1504", "longitude": -51.631835570999954, "latitude": 70.80675654200007}}, {"type": "Feature", "id": 27659, "geometry": {"type": "Point", "coordinates": [-51.67950612499993, 70.86374567800004]}, "properties": {"globalId": "787D19C8-3DBA-4D64-86C8-16C223235EC4", "recordId": 27659, "officialName": "Nerukinnikassaa", "danishName": null, "oldOfficialName": "Nerukínikavsâ", "featureKind": "other", "typeCode": 118, "typeLabel": "Næs", "isLocality": false, "isLocalityShadow": false, "importance": 320, "minZoom": 9.4, "zoomBand": "local", "municipalityCode": 960, "municipalityName": "Avannaata kommunia", "localityCode": "1504", "longitude": -51.67950612499993, "latitude": 70.86374567800004}}, {"type": "Feature", "id": 27695, "geometry": {"type": "Point", "coordinates": [-51.62861532799997, 70.81292385200004]}, "properties": {"globalId": "8EA9670A-A51A-4B24-AE24-6D3D3E141AC6", "recordId": 27695, "officialName": "Alanngorliit", "danishName": null, "oldOfficialName": "Alángordlît", "featureKind": "other", "typeCode": 18, "typeLabel": "Bugt", "isLocality": false, "isLocalityShadow": false, "importance": 680, "minZoom": 5.6, "zoomBand": "major", "municipalityCode": 960, "municipalityName": "Avannaata kommunia", "localityCode": "1504", "longitude": -51.62861532799997, "latitude": 70.81292385200004}}, {"type": "Feature", "id": 32932, "geometry": {"type": "Point", "coordinates": [-51.642903968999974, 70.66558638400005]}, "properties": {"globalId": "119FEDD5-323E-4A20-A62D-055BBB8F8502", "recordId": 32932, "officialName": "Paarngat", "danishName": null, "oldOfficialName": "Paorngat", "featureKind": "other", "typeCode": 101, "typeLabel": "Kyst", "isLocality": false, "isLocalityShadow": false, "importance": 430, "minZoom": 8.4, "zoomBand": "local", "municipalityCode": 960, "municipalityName": "Avannaata kommunia", "localityCode": "1504", "longitude": -51.642903968999974, "latitude": 70.66558638400005}}, {"type": "Feature", "id": 31794, "geometry": {"type": "Point", "coordinates": [-51.626232580999954, 70.81336448400003]}, "properties": {"globalId": "F298EC69-F34C-4AF1-A7E4-63342B5C15E0", "recordId": 31794, "officialName": "Nuunnguaq", "danishName": null, "oldOfficialName": null, "featureKind": "other", "typeCode": 118, "typeLabel": "Næs", "isLocality": false, "isLocalityShadow": false, "importance": 320, "minZoom": 9.4, "zoomBand": "local", "municipalityCode": 960, "municipalityName": "Avannaata kommunia", "localityCode": "1504", "longitude": -51.626232580999954, "latitude": 70.81336448400003}}, {"type": "Feature", "id": 32933, "geometry": {"type": "Point", "coordinates": [-51.635922782999955, 70.66743078700006]}, "properties": {"globalId": "6A89559F-3806-4A84-8900-48E7C64D21BC", "recordId": 32933, "officialName": "Anguujaartorfik", "danishName": null, "oldOfficialName": "Angûjârtorfik", "featureKind": "other", "typeCode": 105, "typeLabel": "Landareal", "isLocality": false, "isLocalityShadow": false, "importance": 560, "minZoom": 7, "zoomBand": "regional", "municipalityCode": 960, "municipalityName": "Avannaata kommunia", "localityCode": "1504", "longitude": -51.635922782999955, "latitude": 70.66743078700006}}, {"type": "Feature", "id": 32924, "geometry": {"type": "Point", "coordinates": [-51.85991718499997, 70.66158679600005]}, "properties": {"globalId": "4708EAE1-DAD9-44C9-B79C-E07780BB06CA", "recordId": 32924, "officialName": "Nunatannguaq", "danishName": null, "oldOfficialName": "Nunatánguaq", "featureKind": "other", "typeCode": 82, "typeLabel": "Bakke", "isLocality": false, "isLocalityShadow": false, "importance": 180, "minZoom": 10.5, "zoomBand": "detail", "municipalityCode": 960, "municipalityName": "Avannaata kommunia", "localityCode": "1500", "longitude": -51.85991718499997, "latitude": 70.66158679600005}}, {"type": "Feature", "id": 31795, "geometry": {"type": "Point", "coordinates": [-51.62223541499998, 70.81399966600003]}, "properties": {"globalId": "2B73F977-2B15-40FB-86BB-21EF74D52CD8", "recordId": 31795, "officialName": "Qerrorsuit", "danishName": null, "oldOfficialName": null, "featureKind": "other", "typeCode": 184, "typeLabel": "Andet", "isLocality": false, "isLocalityShadow": false, "importance": 180, "minZoom": 10.5, "zoomBand": "detail", "municipalityCode": 960, "municipalityName": "Avannaata kommunia", "localityCode": "1504", "longitude": -51.62223541499998, "latitude": 70.81399966600003}}, {"type": "Feature", "id": 31797, "geometry": {"type": "Point", "coordinates": [-51.61982087299998, 70.81779381300004]}, "properties": {"globalId": "B268E422-1DD6-4B9C-8225-A1827BCA0B9B", "recordId": 31797, "officialName": "Sarfannguaq", "danishName": null, "oldOfficialName": null, "featureKind": "other", "typeCode": 178, "typeLabel": "Hav", "isLocality": false, "isLocalityShadow": false, "importance": 820, "minZoom": 3.8, "zoomBand": "major", "municipalityCode": 960, "municipalityName": "Avannaata kommunia", "localityCode": "1504", "longitude": -51.61982087299998, "latitude": 70.81779381300004}}, {"type": "Feature", "id": 27653, "geometry": {"type": "Point", "coordinates": [-51.64449547199996, 70.84974934900004]}, "properties": {"globalId": "13CB3B15-7FA4-40A2-B16E-CE730C97EC06", "recordId": 27653, "officialName": "Maqqarfik", "danishName": null, "oldOfficialName": "Marqarfik", "featureKind": "other", "typeCode": 95, "typeLabel": "Klippe", "isLocality": false, "isLocalityShadow": false, "importance": 180, "minZoom": 10.5, "zoomBand": "detail", "municipalityCode": 960, "municipalityName": "Avannaata kommunia", "localityCode": "1504", "longitude": -51.64449547199996, "latitude": 70.84974934900004}}, {"type": "Feature", "id": 27648, "geometry": {"type": "Point", "coordinates": [-51.682602816999974, 70.88023836600007]}, "properties": {"globalId": "68B91B0D-B412-455F-BC65-F5C971E84827", "recordId": 27648, "officialName": "Uiffaap Qaqqaa", "danishName": null, "oldOfficialName": "Uivfaup qáqâ", "featureKind": "other", "typeCode": 49, "typeLabel": "Fjeld", "isLocality": false, "isLocalityShadow": false, "importance": 520, "minZoom": 7.4, "zoomBand": "regional", "municipalityCode": 960, "municipalityName": "Avannaata kommunia", "localityCode": "1504", "longitude": -51.682602816999974, "latitude": 70.88023836600007}}, {"type": "Feature", "id": 27693, "geometry": {"type": "Point", "coordinates": [-51.62582118499995, 70.82888582500004]}, "properties": {"globalId": "5BB8A46D-A142-41FD-A54D-E418ED4B8211", "recordId": 27693, "officialName": "Uigukumiaq", "danishName": null, "oldOfficialName": "Uigukumiaq", "featureKind": "other", "typeCode": 181, "typeLabel": "Ø", "isLocality": false, "isLocalityShadow": false, "importance": 600, "minZoom": 6.4, "zoomBand": "regional", "municipalityCode": 960, "municipalityName": "Avannaata kommunia", "localityCode": "1504", "longitude": -51.62582118499995, "latitude": 70.82888582500004}}, {"type": "Feature", "id": 31793, "geometry": {"type": "Point", "coordinates": [-51.61262270399993, 70.80821050900005]}, "properties": {"globalId": "74B76E6A-2AF8-4EE2-B1DF-87D568075271", "recordId": 31793, "officialName": "Ammaat Tasiat", "danishName": null, "oldOfficialName": null, "featureKind": "other", "typeCode": 167, "typeLabel": "Sø", "isLocality": false, "isLocalityShadow": false, "importance": 460, "minZoom": 8, "zoomBand": "local", "municipalityCode": 960, "municipalityName": "Avannaata kommunia", "localityCode": "1504", "longitude": -51.61262270399993, "latitude": 70.80821050900005}}, {"type": "Feature", "id": 27663, "geometry": {"type": "Point", "coordinates": [-51.844065333999936, 70.86491852500006]}, "properties": {"globalId": "220DD06B-9258-47BC-A66B-05B1408A176F", "recordId": 27663, "officialName": "Naajat", "danishName": null, "oldOfficialName": "Naujat", "featureKind": "other", "typeCode": 65, "typeLabel": "Fuglefjeld", "isLocality": false, "isLocalityShadow": false, "importance": 180, "minZoom": 10.5, "zoomBand": "detail", "municipalityCode": 960, "municipalityName": "Avannaata kommunia", "localityCode": "1504", "longitude": -51.844065333999936, "latitude": 70.86491852500006}}, {"type": "Feature", "id": 27696, "geometry": {"type": "Point", "coordinates": [-51.613940050999986, 70.81436161400006]}, "properties": {"globalId": "CD19DE42-DF9D-42F8-A792-140B40E02DC4", "recordId": 27696, "officialName": "Illulikassak", "danishName": null, "oldOfficialName": "Igdlulikavsak", "featureKind": "other", "typeCode": 17, "typeLabel": "Kombination", "isLocality": false, "isLocalityShadow": false, "importance": 180, "minZoom": 10.5, "zoomBand": "detail", "municipalityCode": 960, "municipalityName": "Avannaata kommunia", "localityCode": "1504", "longitude": -51.613940050999986, "latitude": 70.81436161400006}}, {"type": "Feature", "id": 27702, "geometry": {"type": "Point", "coordinates": [-51.60922060699994, 70.80750465900007]}, "properties": {"globalId": "72DF6108-0791-42B3-8AFB-1188835C609D", "recordId": 27702, "officialName": "Saattut", "danishName": null, "oldOfficialName": "Sãtut", "featureKind": "other", "typeCode": 181, "typeLabel": "Ø", "isLocality": false, "isLocalityShadow": false, "importance": 600, "minZoom": 6.4, "zoomBand": "regional", "municipalityCode": 960, "municipalityName": "Avannaata kommunia", "localityCode": "1504", "longitude": -51.60922060699994, "latitude": 70.80750465900007}}, {"type": "Feature", "id": 27701, "geometry": {"type": "Point", "coordinates": [-51.607782132999944, 70.80263318200008]}, "properties": {"globalId": "22E7FF6E-5E2B-4736-AB28-84B3572CAB00", "recordId": 27701, "officialName": "Ammaat", "danishName": null, "oldOfficialName": "Angmât", "featureKind": "other", "typeCode": 127, "typeLabel": "Pynt", "isLocality": false, "isLocalityShadow": false, "importance": 290, "minZoom": 9.8, "zoomBand": "local", "municipalityCode": 960, "municipalityName": "Avannaata kommunia", "localityCode": "1504", "longitude": -51.607782132999944, "latitude": 70.80263318200008}}, {"type": "Feature", "id": 27692, "geometry": {"type": "Point", "coordinates": [-51.616588960999934, 70.82484132100006]}, "properties": {"globalId": "F7D528A4-2A08-467A-86D6-2CA300CDB73A", "recordId": 27692, "officialName": "Saattoqqissut", "danishName": null, "oldOfficialName": "Sãtorqigsut", "featureKind": "other", "typeCode": 181, "typeLabel": "Ø", "isLocality": false, "isLocalityShadow": false, "importance": 600, "minZoom": 6.4, "zoomBand": "regional", "municipalityCode": 960, "municipalityName": "Avannaata kommunia", "localityCode": "1504", "longitude": -51.616588960999934, "latitude": 70.82484132100006}}, {"type": "Feature", "id": 32921, "geometry": {"type": "Point", "coordinates": [-51.89891154199995, 70.71245914400004]}, "properties": {"globalId": "3F1FA876-6820-44B1-B766-A293527E0255", "recordId": 32921, "officialName": "Qaassuup Illui", "danishName": null, "oldOfficialName": "Qâgssûp igdlue", "featureKind": "other", "typeCode": 158, "typeLabel": "Sten", "isLocality": false, "isLocalityShadow": false, "importance": 180, "minZoom": 10.5, "zoomBand": "detail", "municipalityCode": 960, "municipalityName": "Avannaata kommunia", "localityCode": "1500", "longitude": -51.89891154199995, "latitude": 70.71245914400004}}, {"type": "Feature", "id": 27691, "geometry": {"type": "Point", "coordinates": [-51.61652018399997, 70.82929852000007]}, "properties": {"globalId": "13AFE5A7-511B-49A4-9829-AFF2C08652ED", "recordId": 27691, "officialName": "Affarleq", "danishName": null, "oldOfficialName": "Agfardleq", "featureKind": "other", "typeCode": 181, "typeLabel": "Ø", "isLocality": false, "isLocalityShadow": false, "importance": 600, "minZoom": 6.4, "zoomBand": "regional", "municipalityCode": 960, "municipalityName": "Avannaata kommunia", "localityCode": "1504", "longitude": -51.61652018399997, "latitude": 70.82929852000007}}, {"type": "Feature", "id": 31789, "geometry": {"type": "Point", "coordinates": [-51.75067577899995, 70.90429731100005]}, "properties": {"globalId": "58C1687B-D89B-4452-88D6-EEAC1D2448DB", "recordId": 31789, "officialName": "Innerit", "danishName": null, "oldOfficialName": null, "featureKind": "other", "typeCode": 11, "typeLabel": "Skråning", "isLocality": false, "isLocalityShadow": false, "importance": 180, "minZoom": 10.5, "zoomBand": "detail", "municipalityCode": 960, "municipalityName": "Avannaata kommunia", "localityCode": "1504", "longitude": -51.75067577899995, "latitude": 70.90429731100005}}, {"type": "Feature", "id": 32922, "geometry": {"type": "Point", "coordinates": [-51.896035895999944, 70.69532695900006]}, "properties": {"globalId": "D4DCC6F7-C57D-4262-A548-C5CC92AAFE2C", "recordId": 32922, "officialName": "Avannarlersuaq", "danishName": null, "oldOfficialName": "Avangnardlerssuaq", "featureKind": "other", "typeCode": 122, "typeLabel": "Type 122", "isLocality": false, "isLocalityShadow": false, "importance": 180, "minZoom": 10.5, "zoomBand": "detail", "municipalityCode": 960, "municipalityName": "Avannaata kommunia", "localityCode": "1500", "longitude": -51.896035895999944, "latitude": 70.69532695900006}}, {"type": "Feature", "id": 31799, "geometry": {"type": "Point", "coordinates": [-51.610052896999946, 70.83056949500008]}, "properties": {"globalId": "0B57999F-0BFB-44A5-A55B-B5534F2D0C13", "recordId": 31799, "officialName": "Ikerasakassak", "danishName": null, "oldOfficialName": null, "featureKind": "other", "typeCode": 166, "typeLabel": "Sund", "isLocality": false, "isLocalityShadow": false, "importance": 740, "minZoom": 5, "zoomBand": "major", "municipalityCode": 960, "municipalityName": "Avannaata kommunia", "localityCode": "1504", "longitude": -51.610052896999946, "latitude": 70.83056949500008}}, {"type": "Feature", "id": 27690, "geometry": {"type": "Point", "coordinates": [-51.609867951999945, 70.83036323300007]}, "properties": {"globalId": "74703D48-3198-46B4-8662-BA8D89C8CB32", "recordId": 27690, "officialName": "Qeqertannguit", "danishName": null, "oldOfficialName": "Qeqertánguit", "featureKind": "other", "typeCode": 183, "typeLabel": "Øgruppe", "isLocality": false, "isLocalityShadow": false, "importance": 720, "minZoom": 5, "zoomBand": "major", "municipalityCode": 960, "municipalityName": "Avannaata kommunia", "localityCode": "1504", "longitude": -51.609867951999945, "latitude": 70.83036323300007}}, {"type": "Feature", "id": 27643, "geometry": {"type": "Point", "coordinates": [-51.68874985799994, 70.90071567800004]}, "properties": {"globalId": "F155FA26-2E47-412F-AAFB-E463DD2CB4FA", "recordId": 27643, "officialName": "Innerit Iluat", "danishName": null, "oldOfficialName": "Ingnerit iluat", "featureKind": "other", "typeCode": 18, "typeLabel": "Bugt", "isLocality": false, "isLocalityShadow": false, "importance": 680, "minZoom": 5.6, "zoomBand": "major", "municipalityCode": 960, "municipalityName": "Avannaata kommunia", "localityCode": "1504", "longitude": -51.68874985799994, "latitude": 70.90071567800004}}, {"type": "Feature", "id": 27697, "geometry": {"type": "Point", "coordinates": [-51.60013959099996, 70.81112821100004]}, "properties": {"globalId": "3993A73B-CA70-4B12-91C4-7A28982EA593", "recordId": 27697, "officialName": "Niaqornannguaq", "danishName": null, "oldOfficialName": "Niaqornánguaq", "featureKind": "other", "typeCode": 118, "typeLabel": "Næs", "isLocality": false, "isLocalityShadow": false, "importance": 320, "minZoom": 9.4, "zoomBand": "local", "municipalityCode": 960, "municipalityName": "Avannaata kommunia", "localityCode": "1504", "longitude": -51.60013959099996, "latitude": 70.81112821100004}}, {"type": "Feature", "id": 27728, "geometry": {"type": "Point", "coordinates": [-51.905403698999976, 70.70193063100004]}, "properties": {"globalId": "05AA0FA6-5228-4177-80B5-5B2C51CFC207", "recordId": 27728, "officialName": "Qorlortoq", "danishName": null, "oldOfficialName": "Qordlortoq", "featureKind": "other", "typeCode": 64, "typeLabel": "Vandfald", "isLocality": false, "isLocalityShadow": false, "importance": 180, "minZoom": 10.5, "zoomBand": "detail", "municipalityCode": 960, "municipalityName": "Avannaata kommunia", "localityCode": "1500", "longitude": -51.905403698999976, "latitude": 70.70193063100004}}, {"type": "Feature", "id": 27652, "geometry": {"type": "Point", "coordinates": [-51.62299362799996, 70.85539991600007]}, "properties": {"globalId": "46DFDD91-8389-43E1-BBA2-0C03CC067DB0", "recordId": 27652, "officialName": "Iterlaap Nuua", "danishName": null, "oldOfficialName": "Iterdlaup nûa", "featureKind": "other", "typeCode": 118, "typeLabel": "Næs", "isLocality": false, "isLocalityShadow": false, "importance": 320, "minZoom": 9.4, "zoomBand": "local", "municipalityCode": 960, "municipalityName": "Avannaata kommunia", "localityCode": "1504", "longitude": -51.62299362799996, "latitude": 70.85539991600007}}, {"type": "Feature", "id": 27726, "geometry": {"type": "Point", "coordinates": [-51.91263006599996, 70.72060953800008]}, "properties": {"globalId": "05E77A9F-A115-480A-B624-7935EC9D5B6E", "recordId": 27726, "officialName": "Salliarusiarsuk", "danishName": null, "oldOfficialName": "Sagdliarusiarssuk", "featureKind": "other", "typeCode": 11, "typeLabel": "Skråning", "isLocality": false, "isLocalityShadow": false, "importance": 180, "minZoom": 10.5, "zoomBand": "detail", "municipalityCode": 960, "municipalityName": "Avannaata kommunia", "localityCode": "1500", "longitude": -51.91263006599996, "latitude": 70.72060953800008}}, {"type": "Feature", "id": 27689, "geometry": {"type": "Point", "coordinates": [-51.603500216999976, 70.83164649400004]}, "properties": {"globalId": "8F24A808-274F-451C-9958-9495A584A4EF", "recordId": 27689, "officialName": "Uigorliit", "danishName": null, "oldOfficialName": "Uigordlît", "featureKind": "other", "typeCode": 181, "typeLabel": "Ø", "isLocality": false, "isLocalityShadow": false, "importance": 600, "minZoom": 6.4, "zoomBand": "regional", "municipalityCode": 960, "municipalityName": "Avannaata kommunia", "localityCode": "1504", "longitude": -51.603500216999976, "latitude": 70.83164649400004}}, {"type": "Feature", "id": 27642, "geometry": {"type": "Point", "coordinates": [-51.735487113999966, 70.91934279600008]}, "properties": {"globalId": "979E890D-8D38-433F-AB87-6F9E0D0540E2", "recordId": 27642, "officialName": "Innerit Kimmut Nuuat", "danishName": null, "oldOfficialName": "Ingnerit kímut nûat", "featureKind": "other", "typeCode": 118, "typeLabel": "Næs", "isLocality": false, "isLocalityShadow": false, "importance": 320, "minZoom": 9.4, "zoomBand": "local", "municipalityCode": 960, "municipalityName": "Avannaata kommunia", "localityCode": "1504", "longitude": -51.735487113999966, "latitude": 70.91934279600008}}, {"type": "Feature", "id": 27733, "geometry": {"type": "Point", "coordinates": [-51.907225136999955, 70.68545573700004]}, "properties": {"globalId": "D2020378-A4AB-4BDA-AD28-229618C34B6C", "recordId": 27733, "officialName": "Innarsuaq", "danishName": null, "oldOfficialName": "Ivnarssuaq", "featureKind": "other", "typeCode": 8, "typeLabel": "Fjeldvæg", "isLocality": false, "isLocalityShadow": false, "importance": 270, "minZoom": 10, "zoomBand": "detail", "municipalityCode": 960, "municipalityName": "Avannaata kommunia", "localityCode": "1500", "longitude": -51.907225136999955, "latitude": 70.68545573700004}}, {"type": "Feature", "id": 31798, "geometry": {"type": "Point", "coordinates": [-51.60050255599998, 70.83195058300004]}, "properties": {"globalId": "9A5B6C10-42BB-43C2-BD44-2B775EBEEF77", "recordId": 31798, "officialName": "Nujatsialik", "danishName": null, "oldOfficialName": null, "featureKind": "other", "typeCode": 86, "typeLabel": "Vig", "isLocality": false, "isLocalityShadow": false, "importance": 420, "minZoom": 8.5, "zoomBand": "local", "municipalityCode": 960, "municipalityName": "Avannaata kommunia", "localityCode": "1504", "longitude": -51.60050255599998, "latitude": 70.83195058300004}}, {"type": "Feature", "id": 27664, "geometry": {"type": "Point", "coordinates": [-51.882343110999955, 70.85930897500003]}, "properties": {"globalId": "A4E49C09-DEB3-4CEB-B224-A0F7DF36B6AF", "recordId": 27664, "officialName": "Qernertunnguit", "danishName": null, "oldOfficialName": "Qernertúnguit", "featureKind": "other", "typeCode": 118, "typeLabel": "Næs", "isLocality": false, "isLocalityShadow": false, "importance": 320, "minZoom": 9.4, "zoomBand": "local", "municipalityCode": 960, "municipalityName": "Avannaata kommunia", "localityCode": "1504", "longitude": -51.882343110999955, "latitude": 70.85930897500003}}, {"type": "Feature", "id": 27731, "geometry": {"type": "Point", "coordinates": [-51.90840890399994, 70.68330530100008]}, "properties": {"globalId": "C4C5229F-7ABF-4C84-A84C-1D49CD355671", "recordId": 27731, "officialName": "Issortalik", "danishName": null, "oldOfficialName": "Ivssortalik", "featureKind": "other", "typeCode": 122, "typeLabel": "Type 122", "isLocality": false, "isLocalityShadow": false, "importance": 180, "minZoom": 10.5, "zoomBand": "detail", "municipalityCode": 960, "municipalityName": "Avannaata kommunia", "localityCode": "1500", "longitude": -51.90840890399994, "latitude": 70.68330530100008}}, {"type": "Feature", "id": 27698, "geometry": {"type": "Point", "coordinates": [-51.58679292499994, 70.80644976600007]}, "properties": {"globalId": "A019AEEA-8663-416F-91F8-78A7FFC85B1D", "recordId": 27698, "officialName": "Narsaarsuk", "danishName": null, "oldOfficialName": "Narssârssuk", "featureKind": "other", "typeCode": 37, "typeLabel": "Slette", "isLocality": false, "isLocalityShadow": false, "importance": 180, "minZoom": 10.5, "zoomBand": "detail", "municipalityCode": 960, "municipalityName": "Avannaata kommunia", "localityCode": "1504", "longitude": -51.58679292499994, "latitude": 70.80644976600007}}, {"type": "Feature", "id": 27725, "geometry": {"type": "Point", "coordinates": [-51.92315601399997, 70.72806515900004]}, "properties": {"globalId": "97E124C5-3769-40F6-B493-78734E350D16", "recordId": 27725, "officialName": "Qingaarsuaq", "danishName": null, "oldOfficialName": "Qingârssuaq", "featureKind": "other", "typeCode": 118, "typeLabel": "Næs", "isLocality": false, "isLocalityShadow": false, "importance": 320, "minZoom": 9.4, "zoomBand": "local", "municipalityCode": 960, "municipalityName": "Avannaata kommunia", "localityCode": "1500", "longitude": -51.92315601399997, "latitude": 70.72806515900004}}, {"type": "Feature", "id": 27729, "geometry": {"type": "Point", "coordinates": [-51.91417918899998, 70.68860294700005]}, "properties": {"globalId": "62A08322-AF2C-4E56-A6E9-CE0145BDBEEC", "recordId": 27729, "officialName": "Tumaasaq", "danishName": null, "oldOfficialName": "Tumaussaq", "featureKind": "other", "typeCode": 122, "typeLabel": "Type 122", "isLocality": false, "isLocalityShadow": false, "importance": 180, "minZoom": 10.5, "zoomBand": "detail", "municipalityCode": 960, "municipalityName": "Avannaata kommunia", "localityCode": "1500", "longitude": -51.91417918899998, "latitude": 70.68860294700005}}, {"type": "Feature", "id": 27700, "geometry": {"type": "Point", "coordinates": [-51.58302959399998, 70.80367730200004]}, "properties": {"globalId": "04F11C05-D48E-4EBB-8A11-35F3DDACD82A", "recordId": 27700, "officialName": "Qungasinnguakassaa", "danishName": null, "oldOfficialName": "Qungasínguakavsâ", "featureKind": "other", "typeCode": 29, "typeLabel": "Lavning", "isLocality": false, "isLocalityShadow": false, "importance": 180, "minZoom": 10.5, "zoomBand": "detail", "municipalityCode": 960, "municipalityName": "Avannaata kommunia", "localityCode": "1504", "longitude": -51.58302959399998, "latitude": 70.80367730200004}}, {"type": "Feature", "id": 27730, "geometry": {"type": "Point", "coordinates": [-51.91574220199993, 70.68646922500005]}, "properties": {"globalId": "702E8C1E-2A85-42B5-8435-DF3ED8D44D44", "recordId": 27730, "officialName": "Qingartarsuaq", "danishName": null, "oldOfficialName": "Qingartarssuaq", "featureKind": "other", "typeCode": 122, "typeLabel": "Type 122", "isLocality": false, "isLocalityShadow": false, "importance": 180, "minZoom": 10.5, "zoomBand": "detail", "municipalityCode": 960, "municipalityName": "Avannaata kommunia", "localityCode": "1500", "longitude": -51.91574220199993, "latitude": 70.68646922500005}}, {"type": "Feature", "id": 27727, "geometry": {"type": "Point", "coordinates": [-51.926641459999985, 70.71858670500006]}, "properties": {"globalId": "7230EF51-5EFC-44F9-87DD-9D831D11D964", "recordId": 27727, "officialName": "Qernertunnguaq", "danishName": null, "oldOfficialName": "Qernertúnguaq", "featureKind": "other", "typeCode": 118, "typeLabel": "Næs", "isLocality": false, "isLocalityShadow": false, "importance": 320, "minZoom": 9.4, "zoomBand": "local", "municipalityCode": 960, "municipalityName": "Avannaata kommunia", "localityCode": "1500", "longitude": -51.926641459999985, "latitude": 70.71858670500006}}, {"type": "Feature", "id": 27644, "geometry": {"type": "Point", "coordinates": [-51.63817188099995, 70.89137455800005]}, "properties": {"globalId": "53242381-14E5-4BFA-ACCB-5603BB79DBF5", "recordId": 27644, "officialName": "Qipoqqaat", "danishName": null, "oldOfficialName": "Qiporqait", "featureKind": "other", "typeCode": 118, "typeLabel": "Næs", "isLocality": false, "isLocalityShadow": false, "importance": 320, "minZoom": 9.4, "zoomBand": "local", "municipalityCode": 960, "municipalityName": "Avannaata kommunia", "localityCode": "1504", "longitude": -51.63817188099995, "latitude": 70.89137455800005}}, {"type": "Feature", "id": 27699, "geometry": {"type": "Point", "coordinates": [-51.575037850999934, 70.80230812000008]}, "properties": {"globalId": "0411439B-7710-4047-8763-CFB46A638407", "recordId": 27699, "officialName": "Niaqua", "danishName": null, "oldOfficialName": "Niaqua", "featureKind": "other", "typeCode": 118, "typeLabel": "Næs", "isLocality": false, "isLocalityShadow": false, "importance": 320, "minZoom": 9.4, "zoomBand": "local", "municipalityCode": 960, "municipalityName": "Avannaata kommunia", "localityCode": "1504", "longitude": -51.575037850999934, "latitude": 70.80230812000008}}, {"type": "Feature", "id": 27714, "geometry": {"type": "Point", "coordinates": [-51.57343717899994, 70.68767285800004]}, "properties": {"globalId": "CA9916C9-8337-4CD7-85E6-4E8A208A2DA3", "recordId": 27714, "officialName": "Itivikkap Kangerlua", "danishName": null, "oldOfficialName": "Itivigkap kangerdlua", "featureKind": "other", "typeCode": 18, "typeLabel": "Bugt", "isLocality": false, "isLocalityShadow": false, "importance": 680, "minZoom": 5.6, "zoomBand": "major", "municipalityCode": 960, "municipalityName": "Avannaata kommunia", "localityCode": "1504", "longitude": -51.57343717899994, "latitude": 70.68767285800004}}, {"type": "Feature", "id": 27716, "geometry": {"type": "Point", "coordinates": [-51.570737133999955, 70.69936697600008]}, "properties": {"globalId": "D9F57DFB-0CBA-4F7D-8519-F826E7B7BBAB", "recordId": 27716, "officialName": "Eqalussualik", "danishName": null, "oldOfficialName": "Eqalugssualik", "featureKind": "other", "typeCode": 72, "typeLabel": "Type 72", "isLocality": false, "isLocalityShadow": false, "importance": 180, "minZoom": 10.5, "zoomBand": "detail", "municipalityCode": 960, "municipalityName": "Avannaata kommunia", "localityCode": "1504", "longitude": -51.570737133999955, "latitude": 70.69936697600008}}, {"type": "Feature", "id": 31711, "geometry": {"type": "Point", "coordinates": [-51.65803918199998, 70.58530890900005]}, "properties": {"globalId": "F25758EE-319C-459E-8F2F-8FD0C3140685", "recordId": 31711, "officialName": "Qajuata Aalisarfia", "danishName": null, "oldOfficialName": null, "featureKind": "other", "typeCode": 178, "typeLabel": "Hav", "isLocality": false, "isLocalityShadow": false, "importance": 820, "minZoom": 3.8, "zoomBand": "major", "municipalityCode": 960, "municipalityName": "Avannaata kommunia", "localityCode": "1503", "longitude": -51.65803918199998, "latitude": 70.58530890900005}}, {"type": "Feature", "id": 27649, "geometry": {"type": "Point", "coordinates": [-51.606072120999954, 70.87002623600006]}, "properties": {"globalId": "DFB5720A-286B-4204-B4A3-FA8324AFD599", "recordId": 27649, "officialName": "Kissaviarsuit Inaat", "danishName": null, "oldOfficialName": "Kigssaviarssuit inât", "featureKind": "other", "typeCode": 8, "typeLabel": "Fjeldvæg", "isLocality": false, "isLocalityShadow": false, "importance": 270, "minZoom": 10, "zoomBand": "detail", "municipalityCode": 960, "municipalityName": "Avannaata kommunia", "localityCode": "1504", "longitude": -51.606072120999954, "latitude": 70.87002623600006}}, {"type": "Feature", "id": 27735, "geometry": {"type": "Point", "coordinates": [-51.91650694899994, 70.66108648300008]}, "properties": {"globalId": "9A0E03E9-DF50-4B6D-98E0-0A401B63C26F", "recordId": 27735, "officialName": "Illunnguaq", "danishName": null, "oldOfficialName": "Igdlúnguaq", "featureKind": "other", "typeCode": 17, "typeLabel": "Kombination", "isLocality": false, "isLocalityShadow": false, "importance": 180, "minZoom": 10.5, "zoomBand": "detail", "municipalityCode": 960, "municipalityName": "Avannaata kommunia", "localityCode": "1500", "longitude": -51.91650694899994, "latitude": 70.66108648300008}}, {"type": "Feature", "id": 27650, "geometry": {"type": "Point", "coordinates": [-51.60004026599995, 70.86744566500005]}, "properties": {"globalId": "5B903D56-7A28-492B-8ED5-35BA4377EC70", "recordId": 27650, "officialName": "Iterlak", "danishName": null, "oldOfficialName": "Iterdlak", "featureKind": "other", "typeCode": 18, "typeLabel": "Bugt", "isLocality": false, "isLocalityShadow": false, "importance": 680, "minZoom": 5.6, "zoomBand": "major", "municipalityCode": 960, "municipalityName": "Avannaata kommunia", "localityCode": "1504", "longitude": -51.60004026599995, "latitude": 70.86744566500005}}, {"type": "Feature", "id": 32923, "geometry": {"type": "Point", "coordinates": [-51.918728183999974, 70.66207616800006]}, "properties": {"globalId": "265A5204-7AE7-401B-BF19-E4695C6C05C5", "recordId": 32923, "officialName": "Eqalugannguit", "danishName": null, "oldOfficialName": "Eqalugánguit", "featureKind": "other", "typeCode": 17, "typeLabel": "Kombination", "isLocality": false, "isLocalityShadow": false, "importance": 180, "minZoom": 10.5, "zoomBand": "detail", "municipalityCode": 960, "municipalityName": "Avannaata kommunia", "localityCode": "1500", "longitude": -51.918728183999974, "latitude": 70.66207616800006}}, {"type": "Feature", "id": 27734, "geometry": {"type": "Point", "coordinates": [-51.92233484399998, 70.66500831700006]}, "properties": {"globalId": "EE134955-D43B-4B0C-912A-B40DEDE4FC2A", "recordId": 27734, "officialName": "Niululissuaq", "danishName": null, "oldOfficialName": "Niululigssuaq", "featureKind": "other", "typeCode": 158, "typeLabel": "Sten", "isLocality": false, "isLocalityShadow": false, "importance": 180, "minZoom": 10.5, "zoomBand": "detail", "municipalityCode": 960, "municipalityName": "Avannaata kommunia", "localityCode": "1500", "longitude": -51.92233484399998, "latitude": 70.66500831700006}}, {"type": "Feature", "id": 27852, "geometry": {"type": "Point", "coordinates": [-51.660379331999934, 70.57832964100004]}, "properties": {"globalId": "4B87AB5C-E083-4C5E-AB88-B0980E0B9AD1", "recordId": 27852, "officialName": "Qaarsup Nuua", "danishName": null, "oldOfficialName": "Qaersup nûa", "featureKind": "other", "typeCode": 118, "typeLabel": "Næs", "isLocality": false, "isLocalityShadow": false, "importance": 320, "minZoom": 9.4, "zoomBand": "local", "municipalityCode": 960, "municipalityName": "Avannaata kommunia", "localityCode": "1503", "longitude": -51.660379331999934, "latitude": 70.57832964100004}}, {"type": "Feature", "id": 27651, "geometry": {"type": "Point", "coordinates": [-51.58787882599995, 70.85779499900008]}, "properties": {"globalId": "CF1386A0-04BF-43DD-8305-C173B3B1768A", "recordId": 27651, "officialName": "Naggorfiaraq", "danishName": null, "oldOfficialName": "Naggorfiaraq", "featureKind": "other", "typeCode": 181, "typeLabel": "Ø", "isLocality": false, "isLocalityShadow": false, "importance": 600, "minZoom": 6.4, "zoomBand": "regional", "municipalityCode": 960, "municipalityName": "Avannaata kommunia", "localityCode": "1504", "longitude": -51.58787882599995, "latitude": 70.85779499900008}}, {"type": "Feature", "id": 27853, "geometry": {"type": "Point", "coordinates": [-51.654545506999966, 70.58050204100005]}, "properties": {"globalId": "0F077753-70BC-47FF-83EE-463A2354AD8B", "recordId": 27853, "officialName": "Qajua", "danishName": null, "oldOfficialName": "Qajua", "featureKind": "other", "typeCode": 37, "typeLabel": "Slette", "isLocality": false, "isLocalityShadow": false, "importance": 180, "minZoom": 10.5, "zoomBand": "detail", "municipalityCode": 960, "municipalityName": "Avannaata kommunia", "localityCode": "1503", "longitude": -51.654545506999966, "latitude": 70.58050204100005}}, {"type": "Feature", "id": 27645, "geometry": {"type": "Point", "coordinates": [-51.60822885999994, 70.88620609400004]}, "properties": {"globalId": "6D7467F8-20D5-44E2-A8AF-DB10CABE4F03", "recordId": 27645, "officialName": "Uuliffik", "danishName": null, "oldOfficialName": "Ûligfik", "featureKind": "other", "typeCode": 86, "typeLabel": "Vig", "isLocality": false, "isLocalityShadow": false, "importance": 420, "minZoom": 8.5, "zoomBand": "local", "municipalityCode": 960, "municipalityName": "Avannaata kommunia", "localityCode": "1504", "longitude": -51.60822885999994, "latitude": 70.88620609400004}}, {"type": "Feature", "id": 27732, "geometry": {"type": "Point", "coordinates": [-51.930709423999986, 70.67175037700008]}, "properties": {"globalId": "C18E5181-6368-438D-81CC-CE10F0A586EA", "recordId": 27732, "officialName": "Kalloorfik", "danishName": null, "oldOfficialName": "Katdlôrfik", "featureKind": "other", "typeCode": 118, "typeLabel": "Næs", "isLocality": false, "isLocalityShadow": false, "importance": 320, "minZoom": 9.4, "zoomBand": "local", "municipalityCode": 960, "municipalityName": "Avannaata kommunia", "localityCode": "1500", "longitude": -51.930709423999986, "latitude": 70.67175037700008}}, {"type": "Feature", "id": 27851, "geometry": {"type": "Point", "coordinates": [-51.65915624199994, 70.57466190500008]}, "properties": {"globalId": "090E5008-E328-42D2-9B65-378C9C6D62B5", "recordId": 27851, "officialName": "Tupersuannguit", "danishName": null, "oldOfficialName": "Tuperssuánguit", "featureKind": "other", "typeCode": 184, "typeLabel": "Andet", "isLocality": false, "isLocalityShadow": false, "importance": 180, "minZoom": 10.5, "zoomBand": "detail", "municipalityCode": 960, "municipalityName": "Avannaata kommunia", "localityCode": "1503", "longitude": -51.65915624199994, "latitude": 70.57466190500008}}, {"type": "Feature", "id": 27675, "geometry": {"type": "Point", "coordinates": [-51.74209340699997, 70.94872991400007]}, "properties": {"globalId": "EA5F079C-D7E8-46EB-A5DA-A7CB798C9178", "recordId": 27675, "officialName": "Torsukattak", "danishName": null, "oldOfficialName": "Torssukátak", "featureKind": "other", "typeCode": 166, "typeLabel": "Sund", "isLocality": false, "isLocalityShadow": false, "importance": 740, "minZoom": 5, "zoomBand": "major", "municipalityCode": 960, "municipalityName": "Avannaata kommunia", "localityCode": "1505", "longitude": -51.74209340699997, "latitude": 70.94872991400007}}, {"type": "Feature", "id": 27847, "geometry": {"type": "Point", "coordinates": [-51.673483301999966, 70.56737038600005]}, "properties": {"globalId": "EA7D635B-1898-40AE-B1D3-160678BE8C72", "recordId": 27847, "officialName": "Ammaat Nuuat", "danishName": null, "oldOfficialName": "Angmât nûat", "featureKind": "other", "typeCode": 118, "typeLabel": "Næs", "isLocality": false, "isLocalityShadow": false, "importance": 320, "minZoom": 9.4, "zoomBand": "local", "municipalityCode": 960, "municipalityName": "Avannaata kommunia", "localityCode": "1503", "longitude": -51.673483301999966, "latitude": 70.56737038600005}}, {"type": "Feature", "id": 27854, "geometry": {"type": "Point", "coordinates": [-51.64624719999995, 70.58170713700008]}, "properties": {"globalId": "7FCB852C-0DBA-489B-8A9A-2DAC1DE087BC", "recordId": 27854, "officialName": "Narsaarsuk", "danishName": null, "oldOfficialName": "Narssârssuk", "featureKind": "other", "typeCode": 37, "typeLabel": "Slette", "isLocality": false, "isLocalityShadow": false, "importance": 180, "minZoom": 10.5, "zoomBand": "detail", "municipalityCode": 960, "municipalityName": "Avannaata kommunia", "localityCode": "1503", "longitude": -51.64624719999995, "latitude": 70.58170713700008}}, {"type": "Feature", "id": 27846, "geometry": {"type": "Point", "coordinates": [-51.67398285899998, 70.56612621000005]}, "properties": {"globalId": "0DDCCE55-5DBD-410A-A722-01F3A97EAC1B", "recordId": 27846, "officialName": "Ammaat", "danishName": null, "oldOfficialName": "Angmât", "featureKind": "other", "typeCode": 18, "typeLabel": "Bugt", "isLocality": false, "isLocalityShadow": false, "importance": 680, "minZoom": 5.6, "zoomBand": "major", "municipalityCode": 960, "municipalityName": "Avannaata kommunia", "localityCode": "1503", "longitude": -51.67398285899998, "latitude": 70.56612621000005}}, {"type": "Feature", "id": 27849, "geometry": {"type": "Point", "coordinates": [-51.676883197999985, 70.56561185600003]}, "properties": {"globalId": "04D7C7EA-169B-42BB-915B-AD45E0CAF504", "recordId": 27849, "officialName": "Qimatulivinnguaq", "danishName": null, "oldOfficialName": "Qimatulivínguaq", "featureKind": "other", "typeCode": 118, "typeLabel": "Næs", "isLocality": false, "isLocalityShadow": false, "importance": 320, "minZoom": 9.4, "zoomBand": "local", "municipalityCode": 960, "municipalityName": "Avannaata kommunia", "localityCode": "1503", "longitude": -51.676883197999985, "latitude": 70.56561185600003}}, {"type": "Feature", "id": 31715, "geometry": {"type": "Point", "coordinates": [-51.66838158899998, 70.56831623800008]}, "properties": {"globalId": "F2757984-0FA1-4056-A0B2-F82870042A7D", "recordId": 31715, "officialName": "Ilivertooq", "danishName": null, "oldOfficialName": null, "featureKind": "other", "typeCode": 105, "typeLabel": "Landareal", "isLocality": false, "isLocalityShadow": false, "importance": 560, "minZoom": 7, "zoomBand": "regional", "municipalityCode": 960, "municipalityName": "Avannaata kommunia", "localityCode": "1503", "longitude": -51.66838158899998, "latitude": 70.56831623800008}}, {"type": "Feature", "id": 31714, "geometry": {"type": "Point", "coordinates": [-51.66800799699996, 70.56893534900007]}, "properties": {"globalId": "93ED99C2-9C9F-4347-8780-933670E88C5A", "recordId": 31714, "officialName": "Ilivertuup Nuua", "danishName": null, "oldOfficialName": null, "featureKind": "other", "typeCode": 118, "typeLabel": "Næs", "isLocality": false, "isLocalityShadow": false, "importance": 320, "minZoom": 9.4, "zoomBand": "local", "municipalityCode": 960, "municipalityName": "Avannaata kommunia", "localityCode": "1503", "longitude": -51.66800799699996, "latitude": 70.56893534900007}}, {"type": "Feature", "id": 31713, "geometry": {"type": "Point", "coordinates": [-51.66239629199998, 70.57186599800008]}, "properties": {"globalId": "5814B4B5-96D0-463C-A3C0-F3A4A2AEEB92", "recordId": 31713, "officialName": "Paatooq", "danishName": null, "oldOfficialName": null, "featureKind": "other", "typeCode": 26, "typeLabel": "Munding", "isLocality": false, "isLocalityShadow": false, "importance": 180, "minZoom": 10.5, "zoomBand": "detail", "municipalityCode": 960, "municipalityName": "Avannaata kommunia", "localityCode": "1503", "longitude": -51.66239629199998, "latitude": 70.57186599800008}}, {"type": "Feature", "id": 32944, "geometry": {"type": "Point", "coordinates": [-51.66917034599993, 70.56796163200005]}, "properties": {"globalId": "16378B1D-41C7-4E8B-AC19-042612154A3D", "recordId": 32944, "officialName": "Qangattaarsuk", "danishName": null, "oldOfficialName": "Qangátârssuk", "featureKind": "other", "typeCode": 118, "typeLabel": "Næs", "isLocality": false, "isLocalityShadow": false, "importance": 320, "minZoom": 9.4, "zoomBand": "local", "municipalityCode": 960, "municipalityName": "Avannaata kommunia", "localityCode": "1503", "longitude": -51.66917034599993, "latitude": 70.56796163200005}}, {"type": "Feature", "id": 27845, "geometry": {"type": "Point", "coordinates": [-51.67676880499994, 70.56428309000006]}, "properties": {"globalId": "D1A8F1B4-D7C0-442E-A37C-6042FD1B1ED1", "recordId": 27845, "officialName": "Qernertunnguit Nuuat", "danishName": null, "oldOfficialName": "Qernertúnguit Nûat", "featureKind": "other", "typeCode": 118, "typeLabel": "Næs", "isLocality": false, "isLocalityShadow": false, "importance": 320, "minZoom": 9.4, "zoomBand": "local", "municipalityCode": 960, "municipalityName": "Avannaata kommunia", "localityCode": "1503", "longitude": -51.67676880499994, "latitude": 70.56428309000006}}, {"type": "Feature", "id": 27850, "geometry": {"type": "Point", "coordinates": [-51.65721206699993, 70.57080328400008]}, "properties": {"globalId": "777E0C9E-AC00-45E3-AE85-4C29A966C6F0", "recordId": 27850, "officialName": "Paatuup Ilua", "danishName": null, "oldOfficialName": "Pâtûp Ilua", "featureKind": "other", "typeCode": 18, "typeLabel": "Bugt", "isLocality": false, "isLocalityShadow": false, "importance": 680, "minZoom": 5.6, "zoomBand": "major", "municipalityCode": 960, "municipalityName": "Avannaata kommunia", "localityCode": "1503", "longitude": -51.65721206699993, "latitude": 70.57080328400008}}, {"type": "Feature", "id": 27848, "geometry": {"type": "Point", "coordinates": [-51.66789102399997, 70.56537028000008]}, "properties": {"globalId": "FD3BAC7A-F288-4B70-A37F-2FAFB322EE08", "recordId": 27848, "officialName": "Kangerlussuaarsuk", "danishName": null, "oldOfficialName": "Kangerdlugssuârssuk", "featureKind": "other", "typeCode": 18, "typeLabel": "Bugt", "isLocality": false, "isLocalityShadow": false, "importance": 680, "minZoom": 5.6, "zoomBand": "major", "municipalityCode": 960, "municipalityName": "Avannaata kommunia", "localityCode": "1503", "longitude": -51.66789102399997, "latitude": 70.56537028000008}}, {"type": "Feature", "id": 31712, "geometry": {"type": "Point", "coordinates": [-51.652874871999984, 70.57302515100008]}, "properties": {"globalId": "0F765A5D-2AAC-441A-BF89-642CF3B46335", "recordId": 31712, "officialName": "Aqqullugiaq", "danishName": null, "oldOfficialName": null, "featureKind": "other", "typeCode": 101, "typeLabel": "Kyst", "isLocality": false, "isLocalityShadow": false, "importance": 430, "minZoom": 8.4, "zoomBand": "local", "municipalityCode": 960, "municipalityName": "Avannaata kommunia", "localityCode": "1503", "longitude": -51.652874871999984, "latitude": 70.57302515100008}}, {"type": "Feature", "id": 27482, "geometry": {"type": "Point", "coordinates": [-51.879959447999966, 70.90473396700008]}, "properties": {"globalId": "D62F5977-AF41-413F-B1C1-63CC3CCDA0A6", "recordId": 27482, "officialName": "Naqerlorsuaq", "danishName": null, "oldOfficialName": "Naqerdlorssuaq", "featureKind": "other", "typeCode": 13, "typeLabel": "Dal", "isLocality": false, "isLocalityShadow": false, "importance": 440, "minZoom": 8.2, "zoomBand": "local", "municipalityCode": 960, "municipalityName": "Avannaata kommunia", "localityCode": "1504", "longitude": -51.879959447999966, "latitude": 70.90473396700008}}, {"type": "Feature", "id": 31716, "geometry": {"type": "Point", "coordinates": [-51.67657202899994, 70.55956606300003]}, "properties": {"globalId": "CD054223-41E4-46F8-8A60-2414D7426CCC", "recordId": 31716, "officialName": "Qeqertannguaq", "danishName": null, "oldOfficialName": null, "featureKind": "other", "typeCode": 181, "typeLabel": "Ø", "isLocality": false, "isLocalityShadow": false, "importance": 600, "minZoom": 6.4, "zoomBand": "regional", "municipalityCode": 960, "municipalityName": "Avannaata kommunia", "localityCode": "1503", "longitude": -51.67657202899994, "latitude": 70.55956606300003}}, {"type": "Feature", "id": 27856, "geometry": {"type": "Point", "coordinates": [-51.62712491899998, 70.58345849400007]}, "properties": {"globalId": "460CEC8A-E1E1-4320-B3FC-D8FE10D445B7", "recordId": 27856, "officialName": "Nasaasaq", "danishName": null, "oldOfficialName": "Nasaussaq", "featureKind": "other", "typeCode": 118, "typeLabel": "Næs", "isLocality": false, "isLocalityShadow": false, "importance": 320, "minZoom": 9.4, "zoomBand": "local", "municipalityCode": 960, "municipalityName": "Avannaata kommunia", "localityCode": "1503", "longitude": -51.62712491899998, "latitude": 70.58345849400007}}, {"type": "Feature", "id": 31718, "geometry": {"type": "Point", "coordinates": [-51.667280792999975, 70.55933615300006]}, "properties": {"globalId": "5D77C75C-6927-4291-8B35-9C56099BA52D", "recordId": 31718, "officialName": "Qangattaarsuup Nuua", "danishName": null, "oldOfficialName": null, "featureKind": "other", "typeCode": 118, "typeLabel": "Næs", "isLocality": false, "isLocalityShadow": false, "importance": 320, "minZoom": 9.4, "zoomBand": "local", "municipalityCode": 960, "municipalityName": "Avannaata kommunia", "localityCode": "1503", "longitude": -51.667280792999975, "latitude": 70.55933615300006}}, {"type": "Feature", "id": 31719, "geometry": {"type": "Point", "coordinates": [-51.667102118999935, 70.55894088600007]}, "properties": {"globalId": "817E5B6A-000E-438A-8723-9970B9387B74", "recordId": 31719, "officialName": "Qangattaarsuk", "danishName": null, "oldOfficialName": null, "featureKind": "other", "typeCode": 101, "typeLabel": "Kyst", "isLocality": false, "isLocalityShadow": false, "importance": 430, "minZoom": 8.4, "zoomBand": "local", "municipalityCode": 960, "municipalityName": "Avannaata kommunia", "localityCode": "1503", "longitude": -51.667102118999935, "latitude": 70.55894088600007}}, {"type": "Feature", "id": 31717, "geometry": {"type": "Point", "coordinates": [-51.66437484399995, 70.56003685900004]}, "properties": {"globalId": "39054027-7A19-46BB-B83A-922AA206CF21", "recordId": 31717, "officialName": "Qeqertaasaq", "danishName": null, "oldOfficialName": null, "featureKind": "other", "typeCode": 82, "typeLabel": "Bakke", "isLocality": false, "isLocalityShadow": false, "importance": 180, "minZoom": 10.5, "zoomBand": "detail", "municipalityCode": 960, "municipalityName": "Avannaata kommunia", "localityCode": "1503", "longitude": -51.66437484399995, "latitude": 70.56003685900004}}, {"type": "Feature", "id": 27844, "geometry": {"type": "Point", "coordinates": [-51.66354592199997, 70.55889888900003]}, "properties": {"globalId": "42C32BAC-DE8B-4ECA-966B-179F891D7181", "recordId": 27844, "officialName": "Uummannatsiaq", "danishName": null, "oldOfficialName": "Ùmánatsiaq", "featureKind": "other", "typeCode": 68, "typeLabel": "Nedlagt bosted", "isLocality": false, "isLocalityShadow": false, "importance": 480, "minZoom": 8, "zoomBand": "local", "municipalityCode": 960, "municipalityName": "Avannaata kommunia", "localityCode": "1503", "longitude": -51.66354592199997, "latitude": 70.55889888900003}}, {"type": "Feature", "id": 31720, "geometry": {"type": "Point", "coordinates": [-51.664303865999955, 70.55769376700005]}, "properties": {"globalId": "3A1724F0-11A7-45C9-9EDD-C7570211238D", "recordId": 31720, "officialName": "Orsugiaap Nuua", "danishName": null, "oldOfficialName": null, "featureKind": "other", "typeCode": 118, "typeLabel": "Næs", "isLocality": false, "isLocalityShadow": false, "importance": 320, "minZoom": 9.4, "zoomBand": "local", "municipalityCode": 960, "municipalityName": "Avannaata kommunia", "localityCode": "1503", "longitude": -51.664303865999955, "latitude": 70.55769376700005}}, {"type": "Feature", "id": 32934, "geometry": {"type": "Point", "coordinates": [-51.55781082999994, 70.66176534400006]}, "properties": {"globalId": "D0163835-BA69-4DCF-A4DE-3DA8EA713FBD", "recordId": 32934, "officialName": "Tupersuatsiaat", "danishName": null, "oldOfficialName": "Tuperssuatsiait", "featureKind": "other", "typeCode": 184, "typeLabel": "Andet", "isLocality": false, "isLocalityShadow": false, "importance": 180, "minZoom": 10.5, "zoomBand": "detail", "municipalityCode": 960, "municipalityName": "Avannaata kommunia", "localityCode": "1504", "longitude": -51.55781082999994, "latitude": 70.66176534400006}}, {"type": "Feature", "id": 32949, "geometry": {"type": "Point", "coordinates": [-51.66417282899994, 70.55587470100005]}, "properties": {"globalId": "95957450-879A-4618-B6DF-DEC132E603B1", "recordId": 32949, "officialName": "Nuunnguaq", "danishName": null, "oldOfficialName": "Nùnguaq", "featureKind": "other", "typeCode": 118, "typeLabel": "Næs", "isLocality": false, "isLocalityShadow": false, "importance": 320, "minZoom": 9.4, "zoomBand": "local", "municipalityCode": 960, "municipalityName": "Avannaata kommunia", "localityCode": "1503", "longitude": -51.66417282899994, "latitude": 70.55587470100005}}, {"type": "Feature", "id": 27646, "geometry": {"type": "Point", "coordinates": [-51.583000195999944, 70.88243320900006]}, "properties": {"globalId": "9C95E8C0-8270-49A3-9251-85284E6FB873", "recordId": 27646, "officialName": "Qoorulusuttuukassaa", "danishName": null, "oldOfficialName": "Qôrulusugtûkavsâ", "featureKind": "other", "typeCode": 118, "typeLabel": "Næs", "isLocality": false, "isLocalityShadow": false, "importance": 320, "minZoom": 9.4, "zoomBand": "local", "municipalityCode": 960, "municipalityName": "Avannaata kommunia", "localityCode": "1504", "longitude": -51.583000195999944, "latitude": 70.88243320900006}}, {"type": "Feature", "id": 32968, "geometry": {"type": "Point", "coordinates": [-51.70082688999997, 70.54115859700005]}, "properties": {"globalId": "7BE9C001-E186-4772-9217-26A55177B408", "recordId": 32968, "officialName": "Nulukassaat", "danishName": null, "oldOfficialName": "Nulukavsait", "featureKind": "other", "typeCode": 118, "typeLabel": "Næs", "isLocality": false, "isLocalityShadow": false, "importance": 320, "minZoom": 9.4, "zoomBand": "local", "municipalityCode": 960, "municipalityName": "Avannaata kommunia", "localityCode": "1503", "longitude": -51.70082688999997, "latitude": 70.54115859700005}}, {"type": "Feature", "id": 32966, "geometry": {"type": "Point", "coordinates": [-51.684905914999945, 70.54383677000004]}, "properties": {"globalId": "C87231C8-64CF-4290-A2E5-82E05CDAC75B", "recordId": 32966, "officialName": "Pullatinnguaq", "danishName": null, "oldOfficialName": "Putdlatínguaq", "featureKind": "other", "typeCode": 118, "typeLabel": "Næs", "isLocality": false, "isLocalityShadow": false, "importance": 320, "minZoom": 9.4, "zoomBand": "local", "municipalityCode": 960, "municipalityName": "Avannaata kommunia", "localityCode": "1503", "longitude": -51.684905914999945, "latitude": 70.54383677000004}}, {"type": "Feature", "id": 27858, "geometry": {"type": "Point", "coordinates": [-51.60902418099994, 70.58485151100007]}, "properties": {"globalId": "6F50C240-DAFE-4AE5-AD7C-9E6A8C4C3E81", "recordId": 27858, "officialName": "Tulukkap Qeqertai", "danishName": null, "oldOfficialName": "Tulugkap qeqertai", "featureKind": "other", "typeCode": 183, "typeLabel": "Øgruppe", "isLocality": false, "isLocalityShadow": false, "importance": 720, "minZoom": 5, "zoomBand": "major", "municipalityCode": 960, "municipalityName": "Avannaata kommunia", "localityCode": "1503", "longitude": -51.60902418099994, "latitude": 70.58485151100007}}, {"type": "Feature", "id": 27869, "geometry": {"type": "Point", "coordinates": [-51.65663483299994, 70.55369857300008]}, "properties": {"globalId": "8F01567B-232D-40C8-8085-F781F8D5F6A9", "recordId": 27869, "officialName": "Niaqornannguaq", "danishName": null, "oldOfficialName": "Niaqornánguaq", "featureKind": "other", "typeCode": 118, "typeLabel": "Næs", "isLocality": false, "isLocalityShadow": false, "importance": 320, "minZoom": 9.4, "zoomBand": "local", "municipalityCode": 960, "municipalityName": "Avannaata kommunia", "localityCode": "1503", "longitude": -51.65663483299994, "latitude": 70.55369857300008}}]}