{"type":"FeatureCollection","features":[{"type":"Feature","id":31347,"geometry":{"type":"Point","coordinates":[-55.594187302999956,72.88510096600004]},"properties":{"globalId":"012E7108-8134-40A2-89D8-73A8C766612F","recordId":31347,"officialName":"Aappilattoq","danishName":null,"oldOfficialName":"Augpilagtoq","featureKind":"settlement","typeCode":23,"municipalityCode":960,"municipalityName":"Avannaata kommunia","localityCode":"1603","longitude":-55.594187302999956,"latitude":72.88510096600004}},{"type":"Feature","id":32990,"geometry":{"type":"Point","coordinates":[-51.30491607399995,70.50186907500006]},"properties":{"globalId":"03633E83-B2A7-4C4C-9477-D3B829FC4F47","recordId":32990,"officialName":"Ikerasak","danishName":null,"oldOfficialName":null,"featureKind":"settlement","typeCode":23,"municipalityCode":960,"municipalityName":"Avannaata kommunia","localityCode":"1503","longitude":-51.30491607399995,"latitude":70.50186907500006}},{"type":"Feature","id":31344,"geometry":{"type":"Point","coordinates":[-53.567856190999976,71.24193643600006]},"properties":{"globalId":"D330B470-7B3B-43E0-B107-6678946BF335","recordId":31344,"officialName":"Illorsuit","danishName":null,"oldOfficialName":"Igdlorssuit","featureKind":"settlement","typeCode":23,"municipalityCode":960,"municipalityName":"Avannaata kommunia","localityCode":"1501","longitude":-53.567856190999976,"latitude":71.24193643600006}},{"type":"Feature","id":31349,"geometry":{"type":"Point","coordinates":[-56.01019952299998,73.20041606900008]},"properties":{"globalId":"489F8982-68F3-4949-88A4-04AE1F91519D","recordId":31349,"officialName":"Innaarsuit","danishName":null,"oldOfficialName":"Ivn\u00e2rssuit","featureKind":"settlement","typeCode":23,"municipalityCode":960,"municipalityName":"Avannaata kommunia","localityCode":"1609","longitude":-56.01019952299998,"latitude":73.20041606900008}},{"type":"Feature","id":31345,"geometry":{"type":"Point","coordinates":[-55.540442834999965,72.38018516300008]},"properties":{"globalId":"947354BA-12AE-441F-ABF2-119949F967BB","recordId":31345,"officialName":"Kangersuatsiaq","danishName":"Pr\u00f8ven","oldOfficialName":"Kangerssuatsiaq","featureKind":"settlement","typeCode":23,"municipalityCode":960,"municipalityName":"Avannaata kommunia","localityCode":"1602","longitude":-55.540442834999965,"latitude":72.38018516300008}},{"type":"Feature","id":31355,"geometry":{"type":"Point","coordinates":[-57.22204036599999,74.57941990200004]},"properties":{"globalId":"A532850A-7BB6-4771-BCD4-A7F8EDCD4A0F","recordId":31355,"officialName":"Kullorsuaq","danishName":null,"oldOfficialName":null,"featureKind":"settlement","typeCode":23,"municipalityCode":960,"municipalityName":"Avannaata kommunia","localityCode":"1607","longitude":-57.22204036599999,"latitude":74.57941990200004}},{"type":"Feature","id":31350,"geometry":{"type":"Point","coordinates":[-55.81008683699997,73.14215463800008]},"properties":{"globalId":"2DFDCA54-9175-408E-86FA-69744D2BE5DD","recordId":31350,"officialName":"Naajaat","danishName":null,"oldOfficialName":"Nauj\u00e2t","featureKind":"settlement","typeCode":23,"municipalityCode":960,"municipalityName":"Avannaata kommunia","localityCode":"1608","longitude":-55.81008683699997,"latitude":73.14215463800008}},{"type":"Feature","id":31339,"geometry":{"type":"Point","coordinates":[-53.660569384999974,70.78937337400004]},"properties":{"globalId":"62D53C40-2C99-48CA-B438-9ACF918BA7A4","recordId":31339,"officialName":"Niaqornat","danishName":null,"oldOfficialName":"Niaqornat","featureKind":"settlement","typeCode":23,"municipalityCode":960,"municipalityName":"Avannaata kommunia","localityCode":"1501","longitude":-53.660569384999974,"latitude":70.78937337400004}},{"type":"Feature","id":31352,"geometry":{"type":"Point","coordinates":[-56.42601982999997,73.51453195300007]},"properties":{"globalId":"AD67EF79-73E3-40D2-8470-78FDBA7A7472","recordId":31352,"officialName":"Nutaarmiut","danishName":null,"oldOfficialName":"Nut\u00e2rmiut","featureKind":"settlement","typeCode":23,"municipalityCode":960,"municipalityName":"Avannaata kommunia","localityCode":"1610","longitude":-56.42601982999997,"latitude":73.51453195300007}},{"type":"Feature","id":31343,"geometry":{"type":"Point","coordinates":[-53.20930630299995,71.53748692900007]},"properties":{"globalId":"63396844-2A07-47AD-8545-01BBC0531366","recordId":31343,"officialName":"Nuugaatsiaq","danishName":null,"oldOfficialName":"N\u00fbg\u00e2tsiaq","featureKind":"settlement","typeCode":23,"municipalityCode":960,"municipalityName":"Avannaata kommunia","localityCode":"1505","longitude":-53.20930630299995,"latitude":71.53748692900007}},{"type":"Feature","id":31354,"geometry":{"type":"Point","coordinates":[-57.05982770899993,74.11023552300003]},"properties":{"globalId":"98D76845-AF51-4D2C-9E7F-F016B9CE3EE0","recordId":31354,"officialName":"Nuussuaq","danishName":"Kraulshavn","oldOfficialName":"N\u00fbgssuaq","featureKind":"settlement","typeCode":23,"municipalityCode":960,"municipalityName":"Avannaata kommunia","localityCode":"1606","longitude":-57.05982770899993,"latitude":74.11023552300003}},{"type":"Feature","id":31340,"geometry":{"type":"Point","coordinates":[-52.690672726999935,70.73553919800008]},"properties":{"globalId":"6C3F419B-E78F-4F8F-A183-6B5BE8C7BF70","recordId":31340,"officialName":"Qaarsut","danishName":null,"oldOfficialName":"Qaersut","featureKind":"settlement","typeCode":23,"municipalityCode":960,"municipalityName":"Avannaata kommunia","localityCode":"1502","longitude":-52.690672726999935,"latitude":70.73553919800008}},{"type":"Feature","id":31341,"geometry":{"type":"Point","coordinates":[-51.63200974399996,70.80976199900005]},"properties":{"globalId":"63E1B202-897D-422D-9BAB-67A5905A3D35","recordId":31341,"officialName":"Saattut","danishName":null,"oldOfficialName":null,"featureKind":"settlement","typeCode":23,"municipalityCode":960,"municipalityName":"Avannaata kommunia","localityCode":"1504","longitude":-51.63200974399996,"latitude":70.80976199900005}},{"type":"Feature","id":31351,"geometry":{"type":"Point","coordinates":[-56.063346051999986,73.36881104200006]},"properties":{"globalId":"37B5C8D7-DCBE-4BC0-BC1C-5CC360649899","recordId":31351,"officialName":"Tasiusaq","danishName":null,"oldOfficialName":"Tasiussaq","featureKind":"settlement","typeCode":23,"municipalityCode":960,"municipalityName":"Avannaata kommunia","localityCode":"1605","longitude":-56.063346051999986,"latitude":73.36881104200006}},{"type":"Feature","id":31342,"geometry":{"type":"Point","coordinates":[-51.88486752399996,71.05101708400008]},"properties":{"globalId":"41F81232-E854-4218-9771-29A80535C589","recordId":31342,"officialName":"Ukkusissat","danishName":null,"oldOfficialName":"Uvkusigssat","featureKind":"settlement","typeCode":23,"municipalityCode":960,"municipalityName":"Avannaata kommunia","localityCode":"1505","longitude":-51.88486752399996,"latitude":71.05101708400008}},{"type":"Feature","id":31362,"geometry":{"type":"Point","coordinates":[-56.14200525899997,72.78533258100003]},"properties":{"globalId":"7AEB27F1-4AB1-4F71-AF58-6FC50F17A4CA","recordId":31362,"officialName":"Upernavik","danishName":null,"oldOfficialName":"Upernavik","featureKind":"town","typeCode":21,"municipalityCode":960,"municipalityName":"Avannaata kommunia","localityCode":"1600","longitude":-56.14200525899997,"latitude":72.78533258100003}},{"type":"Feature","id":31346,"geometry":{"type":"Point","coordinates":[-55.52809897099996,72.15416177000003]},"properties":{"globalId":"9E49A3F4-351A-4027-AF41-BCB5714C035F","recordId":31346,"officialName":"Upernavik Kujalleq","danishName":"S\u00f8ndre Upernavik","oldOfficialName":"Upernavik kujatdleq","featureKind":"settlement","typeCode":23,"municipalityCode":960,"municipalityName":"Avannaata kommunia","localityCode":"1601","longitude":-55.52809897099996,"latitude":72.15416177000003}},{"type":"Feature","id":32991,"geometry":{"type":"Point","coordinates":[-52.13146336999995,70.68063273700005]},"properties":{"globalId":"781CEB5A-0293-46BA-9214-BCBDB807B978","recordId":32991,"officialName":"Uummannaq","danishName":null,"oldOfficialName":"\u00d9m\u00e1naq","featureKind":"town","typeCode":21,"municipalityCode":960,"municipalityName":"Avannaata kommunia","localityCode":"1500","longitude":-52.13146336999995,"latitude":70.68063273700005}}]}
